{"type":"FeatureCollection","features":[{"type":"Feature","properties":{"nom":"Platane 01","essence":"Feuillu","hauteur_m":8},"geometry":{"type":"Point","coordinates":[5.367235,43.29596]}},{"type":"Feature","properties":{"nom":"Pin 02","essence":"Conifère","hauteur_m":10},"geometry":{"type":"Point","coordinates":[5.36809,43.29596]}},{"type":"Feature","properties":{"nom":"Palmier 03","essence":"Palmier","hauteur_m":7},"geometry":{"type":"Point","coordinates":[5.368945,43.29596]}},{"type":"Feature","properties":{"nom":"Platane 04","essence":"Feuillu","hauteur_m":9},"geometry":{"type":"Point","coordinates":[5.3698,43.29596]}},{"type":"Feature","properties":{"nom":"Pin 05","essence":"Conifère","hauteur_m":6},"geometry":{"type":"Point","coordinates":[5.370654999999999,43.29596]}},{"type":"Feature","properties":{"nom":"Palmier 06","essence":"Palmier","hauteur_m":8},"geometry":{"type":"Point","coordinates":[5.37151,43.29596]}},{"type":"Feature","properties":{"nom":"Platane 07","essence":"Feuillu","hauteur_m":10},"geometry":{"type":"Point","coordinates":[5.372364999999999,43.29596]}},{"type":"Feature","properties":{"nom":"Pin 08","essence":"Conifère","hauteur_m":7},"geometry":{"type":"Point","coordinates":[5.367235,43.297760000000004]}},{"type":"Feature","properties":{"nom":"Palmier 09","essence":"Palmier","hauteur_m":9},"geometry":{"type":"Point","coordinates":[5.36809,43.297760000000004]}},{"type":"Feature","properties":{"nom":"Platane 10","essence":"Feuillu","hauteur_m":6},"geometry":{"type":"Point","coordinates":[5.368945,43.297760000000004]}},{"type":"Feature","properties":{"nom":"Pin 11","essence":"Conifère","hauteur_m":8},"geometry":{"type":"Point","coordinates":[5.3698,43.297760000000004]}},{"type":"Feature","properties":{"nom":"Palmier 12","essence":"Palmier","hauteur_m":10},"geometry":{"type":"Point","coordinates":[5.370654999999999,43.297760000000004]}},{"type":"Feature","properties":{"nom":"Platane 13","essence":"Feuillu","hauteur_m":7},"geometry":{"type":"Point","coordinates":[5.37151,43.297760000000004]}},{"type":"Feature","properties":{"nom":"Pin 14","essence":"Conifère","hauteur_m":9},"geometry":{"type":"Point","coordinates":[5.372364999999999,43.297760000000004]}}]}