{"type":"FeatureCollection","features":[{"type":"Feature","properties":{"nom":"Axe principal","rang":"Principal"},"geometry":{"type":"LineString","coordinates":[[5.3669199999999995,43.29696838785518],[5.3689,43.296684936639785],[5.370699999999999,43.29721506336022],[5.37304,43.29681060606036]]}},{"type":"Feature","properties":{"nom":"Desserte nord","rang":"Desserte"},"geometry":{"type":"LineString","coordinates":[[5.3669199999999995,43.29876838785518],[5.3689,43.29848493663979],[5.370699999999999,43.299015063360216],[5.37304,43.298610606060365]]}},{"type":"Feature","properties":{"nom":"Desserte sud","rang":"Desserte"},"geometry":{"type":"LineString","coordinates":[[5.3669199999999995,43.295168387855185],[5.3689,43.29488493663979],[5.370699999999999,43.29541506336022],[5.37304,43.295010606060366]]}}]}