{"type":"FeatureCollection","features":[{"type":"Feature","properties":{"nom":"Îlot 01","famille":"Écoles","valeur":5,"hauteur_m":6,"livraison":1705276800000},"geometry":{"type":"Polygon","coordinates":[[[5.36755,43.2947],[5.368288,43.2947],[5.368288,43.295438],[5.36755,43.295438],[5.36755,43.2947]]]}},{"type":"Feature","properties":{"nom":"Îlot 02","famille":"Commerces","valeur":24,"hauteur_m":6,"livraison":1713139200000},"geometry":{"type":"Polygon","coordinates":[[[5.368449999999999,43.2947],[5.369187999999999,43.2947],[5.369187999999999,43.295438],[5.368449999999999,43.295438],[5.368449999999999,43.2947]]]}},{"type":"Feature","properties":{"nom":"Îlot 03","famille":"Bureaux","valeur":43,"hauteur_m":6,"livraison":1721001600000},"geometry":{"type":"Polygon","coordinates":[[[5.36935,43.2947],[5.370088,43.2947],[5.370088,43.295438],[5.36935,43.295438],[5.36935,43.2947]]]}},{"type":"Feature","properties":{"nom":"Îlot 04","famille":"Logements","valeur":62,"hauteur_m":6,"livraison":1728950400000},"geometry":{"type":"Polygon","coordinates":[[[5.3702499999999995,43.2947],[5.370988,43.2947],[5.370988,43.295438],[5.3702499999999995,43.295438],[5.3702499999999995,43.2947]]]}},{"type":"Feature","properties":{"nom":"Îlot 05","famille":"Écoles","valeur":81,"hauteur_m":6,"livraison":1736899200000},"geometry":{"type":"Polygon","coordinates":[[[5.37115,43.2947],[5.371888,43.2947],[5.371888,43.295438],[5.37115,43.295438],[5.37115,43.2947]]]}},{"type":"Feature","properties":{"nom":"Îlot 06","famille":"Commerces","valeur":100,"hauteur_m":6,"livraison":1744675200000},"geometry":{"type":"Polygon","coordinates":[[[5.37205,43.2947],[5.372788,43.2947],[5.372788,43.295438],[5.37205,43.295438],[5.37205,43.2947]]]}},{"type":"Feature","properties":{"nom":"Îlot 07","famille":"Commerces","valeur":null,"hauteur_m":17,"livraison":1705276800000},"geometry":{"type":"Polygon","coordinates":[[[5.36755,43.2956],[5.368288,43.2956],[5.368288,43.296338],[5.36755,43.296338],[5.36755,43.2956]]]}},{"type":"Feature","properties":{"nom":"Îlot 08","famille":"Bureaux","valeur":24,"hauteur_m":17,"livraison":1713139200000},"geometry":{"type":"Polygon","coordinates":[[[5.368449999999999,43.2956],[5.369187999999999,43.2956],[5.369187999999999,43.296338],[5.368449999999999,43.296338],[5.368449999999999,43.2956]]]}},{"type":"Feature","properties":{"nom":"Îlot 09","famille":"Logements","valeur":43,"hauteur_m":17,"livraison":1721001600000},"geometry":{"type":"Polygon","coordinates":[[[5.36935,43.2956],[5.370088,43.2956],[5.370088,43.296338],[5.36935,43.296338],[5.36935,43.2956]]]}},{"type":"Feature","properties":{"nom":"Îlot 10","famille":"Écoles","valeur":62,"hauteur_m":17,"livraison":1728950400000},"geometry":{"type":"Polygon","coordinates":[[[5.3702499999999995,43.2956],[5.370988,43.2956],[5.370988,43.296338],[5.3702499999999995,43.296338],[5.3702499999999995,43.2956]]]}},{"type":"Feature","properties":{"nom":"Îlot 11","famille":"Commerces","valeur":81,"hauteur_m":17,"livraison":1736899200000},"geometry":{"type":"Polygon","coordinates":[[[5.37115,43.2956],[5.371888,43.2956],[5.371888,43.296338],[5.37115,43.296338],[5.37115,43.2956]]]}},{"type":"Feature","properties":{"nom":"Îlot 12","famille":"Bureaux","valeur":100,"hauteur_m":17,"livraison":1744675200000},"geometry":{"type":"Polygon","coordinates":[[[5.37205,43.2956],[5.372788,43.2956],[5.372788,43.296338],[5.37205,43.296338],[5.37205,43.2956]]]}},{"type":"Feature","properties":{"nom":"Îlot 13","famille":"Bureaux","valeur":5,"hauteur_m":28,"livraison":1705276800000},"geometry":{"type":"Polygon","coordinates":[[[5.36755,43.2965],[5.368288,43.2965],[5.368288,43.297238],[5.36755,43.297238],[5.36755,43.2965]]]}},{"type":"Feature","properties":{"nom":"Îlot 14","famille":"Logements","valeur":24,"hauteur_m":28,"livraison":1713139200000},"geometry":{"type":"Polygon","coordinates":[[[5.368449999999999,43.2965],[5.369187999999999,43.2965],[5.369187999999999,43.297238],[5.368449999999999,43.297238],[5.368449999999999,43.2965]]]}},{"type":"Feature","properties":{"nom":"Îlot 15","famille":"Écoles","valeur":43,"hauteur_m":28,"livraison":1721001600000},"geometry":{"type":"Polygon","coordinates":[[[5.36935,43.2965],[5.370088,43.2965],[5.370088,43.297238],[5.36935,43.297238],[5.36935,43.2965]]]}},{"type":"Feature","properties":{"nom":"Îlot 16","famille":"Commerces","valeur":62,"hauteur_m":28,"livraison":1728950400000},"geometry":{"type":"Polygon","coordinates":[[[5.3702499999999995,43.2965],[5.370988,43.2965],[5.370988,43.297238],[5.3702499999999995,43.297238],[5.3702499999999995,43.2965]]]}},{"type":"Feature","properties":{"nom":"Îlot 17","famille":"Bureaux","valeur":81,"hauteur_m":28,"livraison":1736899200000},"geometry":{"type":"Polygon","coordinates":[[[5.37115,43.2965],[5.371888,43.2965],[5.371888,43.297238],[5.37115,43.297238],[5.37115,43.2965]]]}},{"type":"Feature","properties":{"nom":"Îlot 18","famille":"Logements","valeur":100,"hauteur_m":28,"livraison":1744675200000},"geometry":{"type":"Polygon","coordinates":[[[5.37205,43.2965],[5.372788,43.2965],[5.372788,43.297238],[5.37205,43.297238],[5.37205,43.2965]]]}},{"type":"Feature","properties":{"nom":"Îlot 19","famille":"Logements","valeur":null,"hauteur_m":39,"livraison":1705276800000},"geometry":{"type":"Polygon","coordinates":[[[5.36755,43.2974],[5.368288,43.2974],[5.368288,43.298138],[5.36755,43.298138],[5.36755,43.2974]]]}},{"type":"Feature","properties":{"nom":"Îlot 20","famille":"Écoles","valeur":24,"hauteur_m":39,"livraison":1713139200000},"geometry":{"type":"Polygon","coordinates":[[[5.368449999999999,43.2974],[5.369187999999999,43.2974],[5.369187999999999,43.298138],[5.368449999999999,43.298138],[5.368449999999999,43.2974]]]}},{"type":"Feature","properties":{"nom":"Îlot 21","famille":"Commerces","valeur":43,"hauteur_m":39,"livraison":1721001600000},"geometry":{"type":"Polygon","coordinates":[[[5.36935,43.2974],[5.370088,43.2974],[5.370088,43.298138],[5.36935,43.298138],[5.36935,43.2974]]]}},{"type":"Feature","properties":{"nom":"Îlot 22","famille":"Bureaux","valeur":62,"hauteur_m":39,"livraison":1728950400000},"geometry":{"type":"Polygon","coordinates":[[[5.3702499999999995,43.2974],[5.370988,43.2974],[5.370988,43.298138],[5.3702499999999995,43.298138],[5.3702499999999995,43.2974]]]}},{"type":"Feature","properties":{"nom":"Îlot 23","famille":"Logements","valeur":81,"hauteur_m":39,"livraison":1736899200000},"geometry":{"type":"Polygon","coordinates":[[[5.37115,43.2974],[5.371888,43.2974],[5.371888,43.298138],[5.37115,43.298138],[5.37115,43.2974]]]}},{"type":"Feature","properties":{"nom":"Îlot 24","famille":"Écoles","valeur":100,"hauteur_m":39,"livraison":1744675200000},"geometry":{"type":"Polygon","coordinates":[[[5.37205,43.2974],[5.372788,43.2974],[5.372788,43.298138],[5.37205,43.298138],[5.37205,43.2974]]]}},{"type":"Feature","properties":{"nom":"Îlot 25","famille":"Écoles","valeur":5,"hauteur_m":50,"livraison":1705276800000},"geometry":{"type":"Polygon","coordinates":[[[5.36755,43.298300000000005],[5.368288,43.298300000000005],[5.368288,43.299038],[5.36755,43.299038],[5.36755,43.298300000000005]]]}},{"type":"Feature","properties":{"nom":"Îlot 26","famille":"Commerces","valeur":24,"hauteur_m":50,"livraison":1713139200000},"geometry":{"type":"Polygon","coordinates":[[[5.368449999999999,43.298300000000005],[5.369187999999999,43.298300000000005],[5.369187999999999,43.299038],[5.368449999999999,43.299038],[5.368449999999999,43.298300000000005]]]}},{"type":"Feature","properties":{"nom":"Îlot 27","famille":"Bureaux","valeur":43,"hauteur_m":50,"livraison":1721001600000},"geometry":{"type":"Polygon","coordinates":[[[5.36935,43.298300000000005],[5.370088,43.298300000000005],[5.370088,43.299038],[5.36935,43.299038],[5.36935,43.298300000000005]]]}},{"type":"Feature","properties":{"nom":"Îlot 28","famille":"Logements","valeur":62,"hauteur_m":50,"livraison":1728950400000},"geometry":{"type":"Polygon","coordinates":[[[5.3702499999999995,43.298300000000005],[5.370988,43.298300000000005],[5.370988,43.299038],[5.3702499999999995,43.299038],[5.3702499999999995,43.298300000000005]]]}},{"type":"Feature","properties":{"nom":"Îlot 29","famille":"Écoles","valeur":81,"hauteur_m":50,"livraison":1736899200000},"geometry":{"type":"Polygon","coordinates":[[[5.37115,43.298300000000005],[5.371888,43.298300000000005],[5.371888,43.299038],[5.37115,43.299038],[5.37115,43.298300000000005]]]}},{"type":"Feature","properties":{"nom":"Îlot 30","famille":"Commerces","valeur":100,"hauteur_m":50,"livraison":1744675200000},"geometry":{"type":"Polygon","coordinates":[[[5.37205,43.298300000000005],[5.372788,43.298300000000005],[5.372788,43.299038],[5.37205,43.299038],[5.37205,43.298300000000005]]]}}]}