{"type":"FeatureCollection","features":[{"type":"Feature","properties":{"nom":"Halle","type":"Équipement"},"geometry":{"type":"Point","coordinates":[5.36782,43.297760000000004]}},{"type":"Feature","properties":{"nom":"Marché","type":"Commerce"},"geometry":{"type":"Point","coordinates":[5.37034,43.29542]}},{"type":"Feature","properties":{"nom":"École","type":"Équipement"},"geometry":{"type":"Point","coordinates":[5.37196,43.298120000000004]}},{"type":"Feature","properties":{"nom":"Kiosque","type":"Commerce"},"geometry":{"type":"Point","coordinates":[5.369079999999999,43.29884]}}]}