{"type":"FeatureCollection","features":[{"type":"Feature","properties":{"osm_id":"node/773205373","name":null,"source":"OpenStreetMap","waterway":"waterfall","nature":"Cascade","couvert":"à ciel ouvert"},"geometry":{"type":"Point","coordinates":[5.3627068,43.3562573]}},{"type":"Feature","properties":{"osm_id":"node/789366740","name":"Cascade des Aygalades","source":"OpenStreetMap","waterway":"waterfall","nature":"Cascade","couvert":"à ciel ouvert"},"geometry":{"type":"Point","coordinates":[5.3632144,43.3531876]}},{"type":"Feature","properties":{"osm_id":"way/54032759","name":"Sous-dérivation de Saint-Louis du canal de Marseille","source":"OpenStreetMap","waterway":"canal","nature":"Canal","couvert":"busé"},"geometry":{"type":"LineString","coordinates":[[5.3566535,43.3532933],[5.3566717,43.3531345],[5.3567391,43.3528286],[5.356797,43.3526289],[5.3568577,43.3524294],[5.3569693,43.3522975],[5.3571316,43.3521644],[5.3572178,43.352033],[5.3572434,43.3519699],[5.3572457,43.3519009],[5.3571031,43.3514371],[5.356962,43.3509456],[5.3568673,43.3504066],[5.3567804,43.3498731],[5.3566821,43.3493053],[5.3566157,43.3491351],[5.3564277,43.3489025],[5.3563015,43.3487273]]}},{"type":"Feature","properties":{"osm_id":"way/54032764","name":"Sous-dérivation de Saint-Louis du canal de Marseille","source":"OpenStreetMap","waterway":"canal","nature":"Canal","couvert":"à ciel ouvert"},"geometry":{"type":"LineString","coordinates":[[5.3563247,43.3485948],[5.356503,43.3477577]]}},{"type":"Feature","properties":{"osm_id":"way/54032767","name":"Sous-dérivation de Saint-Louis du canal de Marseille","source":"OpenStreetMap","waterway":"canal","nature":"Canal","couvert":"à ciel ouvert"},"geometry":{"type":"LineString","coordinates":[[5.3563015,43.3487273],[5.3562973,43.3487043],[5.3563247,43.3485948]]}},{"type":"Feature","properties":{"osm_id":"way/54032772","name":"Sous-dérivation de Saint-Louis du canal de Marseille","source":"OpenStreetMap","waterway":"canal","nature":"Canal","couvert":"busé"},"geometry":{"type":"LineString","coordinates":[[5.3567766,43.3580299],[5.3568469,43.3578396],[5.3570311,43.3573951],[5.357292,43.3564218],[5.3572542,43.3559585],[5.3572094,43.3554882],[5.3571457,43.3553147],[5.357088,43.3552404],[5.3570664,43.3552097],[5.3569649,43.3550838],[5.3569268,43.355007],[5.3569169,43.3549179],[5.3570047,43.3545673],[5.3570312,43.3544132],[5.3570045,43.3541933],[5.357042,43.3540137],[5.3570272,43.3539846]]}},{"type":"Feature","properties":{"osm_id":"way/54032779","name":"Sous-dérivation de Saint-Louis du canal de Marseille","source":"OpenStreetMap","waterway":"canal","nature":"Canal","couvert":"à ciel ouvert"},"geometry":{"type":"LineString","coordinates":[[5.3570272,43.3539846],[5.3566535,43.3532933]]}},{"type":"Feature","properties":{"osm_id":"way/63949764","name":"Ruisseau des Aygalades","source":"OpenStreetMap","waterway":"river","nature":"Ruisseau","couvert":"busé"},"geometry":{"type":"LineString","coordinates":[[5.3625327,43.3482779],[5.3624232,43.3482061],[5.362401,43.3481907],[5.3622907,43.3480578],[5.3621577,43.3477479],[5.3621733,43.34771]]}},{"type":"Feature","properties":{"osm_id":"way/91672832","name":"Ruisseau des Aygalades","source":"OpenStreetMap","waterway":"river","nature":"Ruisseau","couvert":"à ciel ouvert"},"geometry":{"type":"LineString","coordinates":[[5.3603454,43.3654159],[5.3596371,43.3648749],[5.3595534,43.3647906],[5.3594842,43.3647223],[5.3594379,43.3646539],[5.359361,43.3645023],[5.3593136,43.3643952],[5.3592388,43.3642189],[5.3590971,43.3638837],[5.3590778,43.3638209],[5.3590619,43.3637599],[5.3590498,43.3637008],[5.3590466,43.3636464],[5.3590522,43.3635596],[5.3590746,43.3634911],[5.3592275,43.3632392],[5.3592704,43.3631446],[5.3593374,43.3629968],[5.3594229,43.3628091],[5.359503,43.3626864],[5.3595753,43.3625148],[5.359598,43.3624394],[5.3596301,43.3623493],[5.3596873,43.3622473],[5.3598403,43.3619183],[5.359922,43.361735],[5.3599379,43.3616367],[5.3600094,43.3615458],[5.360139,43.3614094],[5.3602224,43.3613117],[5.3603155,43.3612018],[5.3603918,43.3611163],[5.3604201,43.3610659],[5.3605739,43.3609575],[5.3606773,43.3608207],[5.3607578,43.360747],[5.3610585,43.360548],[5.36116,43.3605265],[5.3612409,43.3604934],[5.3613526,43.3604404],[5.361434,43.3603879],[5.3614855,43.3603472],[5.3615351,43.3603222],[5.3616248,43.3602243],[5.3617077,43.3601451],[5.3617471,43.360088],[5.3618594,43.3596946],[5.3618992,43.3596467],[5.3619594,43.3594407],[5.3627967,43.3569821]]}},{"type":"Feature","properties":{"osm_id":"way/224625427","name":"Ruisseau des Aygalades","source":"OpenStreetMap","waterway":"river","nature":"Ruisseau","couvert":"à ciel ouvert"},"geometry":{"type":"LineString","coordinates":[[5.3630723,43.3487567],[5.3630273,43.3486354],[5.362971,43.348592],[5.3628826,43.3485569],[5.3628321,43.3485589],[5.3627806,43.3485372],[5.3627808,43.3484756],[5.3627517,43.3484307],[5.3626934,43.3483997],[5.3626422,43.3483857],[5.362631,43.348365],[5.3625838,43.3483528],[5.3625624,43.3483049],[5.3625327,43.3482779]]}},{"type":"Feature","properties":{"osm_id":"way/224625428","name":"Ruisseau des Aygalades","source":"OpenStreetMap","waterway":"river","nature":"Ruisseau","couvert":"busé"},"geometry":{"type":"LineString","coordinates":[[5.3631886,43.3490063],[5.3631357,43.3488842],[5.3630723,43.3487567]]}},{"type":"Feature","properties":{"osm_id":"way/326384894","name":"Ruisseau des Aygalades","source":"OpenStreetMap","waterway":"river","nature":"Ruisseau","couvert":"à ciel ouvert"},"geometry":{"type":"LineString","coordinates":[[5.362905,43.3541576],[5.3629332,43.3541384],[5.363026,43.3540873],[5.3631079,43.3540565],[5.3632258,43.3540553],[5.3633256,43.3540344],[5.3633751,43.353963],[5.363409,43.353895],[5.3634072,43.3537628],[5.3633975,43.3536847],[5.3633276,43.3535576],[5.3632706,43.3533745],[5.3632247,43.3532339],[5.3632144,43.3531876],[5.3632225,43.3531782],[5.3632502,43.3531627],[5.3632615,43.3531428],[5.3632629,43.3530777],[5.3632674,43.3529948],[5.3632296,43.3529503],[5.3631595,43.3529089],[5.3631101,43.352827],[5.3630765,43.3527007],[5.362987,43.3525035],[5.3629642,43.3524197],[5.362932,43.352227],[5.3629486,43.3521537],[5.3629749,43.3520973],[5.3629934,43.3519737],[5.3630611,43.3517126],[5.3630801,43.3516004],[5.3630761,43.3514669],[5.3630661,43.3512453],[5.3629967,43.3510316],[5.3629349,43.350815],[5.3628886,43.3506586],[5.3628421,43.3506009],[5.3627105,43.3502587],[5.3627553,43.3499431],[5.3628167,43.3498215],[5.3629913,43.3495714],[5.3631962,43.3492658],[5.3631886,43.3490063]]}},{"type":"Feature","properties":{"osm_id":"way/503264360","name":"Sous-dérivation de Saint-Louis du canal de Marseille","source":"OpenStreetMap","waterway":"canal","nature":"Canal","couvert":"busé"},"geometry":{"type":"LineString","coordinates":[[5.3561333,43.3683347],[5.3563629,43.367058],[5.356366,43.3668989],[5.3562889,43.3667175],[5.3560609,43.3663154],[5.3555674,43.3654754],[5.3555455,43.3653692],[5.3555572,43.364873],[5.3555741,43.3644328],[5.3555844,43.363327],[5.3556066,43.3632217],[5.3556613,43.3631165],[5.3559292,43.3627894],[5.3562584,43.3623718],[5.3565015,43.3620734],[5.3565752,43.3619451],[5.3569496,43.3610137],[5.3570406,43.3607166],[5.3571971,43.3604161],[5.3572116,43.3603046],[5.3572862,43.3600474],[5.3566707,43.3584292],[5.3566693,43.3582264],[5.3567766,43.3580299]]}},{"type":"Feature","properties":{"osm_id":"way/1083532423","name":"Ruisseau des Aygalades","source":"OpenStreetMap","waterway":"river","nature":"Ruisseau","couvert":"à ciel ouvert"},"geometry":{"type":"LineString","coordinates":[[5.3627967,43.3569821],[5.3627317,43.3563946],[5.3627007,43.356286],[5.3627068,43.3562573],[5.3627668,43.3561382],[5.3627801,43.3559797],[5.3628036,43.3559319],[5.3628384,43.355734],[5.3628248,43.355589],[5.3627333,43.3554308],[5.3627202,43.3553066],[5.3626922,43.3551831],[5.3627498,43.3550327],[5.3628125,43.3547221],[5.362825,43.354645],[5.3628121,43.3543775],[5.3628059,43.3542793]]}},{"type":"Feature","properties":{"osm_id":"way/1083532424","name":"Ruisseau des Aygalades","source":"OpenStreetMap","waterway":"river","nature":"Ruisseau","couvert":"busé"},"geometry":{"type":"LineString","coordinates":[[5.3628059,43.3542793],[5.3628195,43.3542159],[5.362905,43.3541576]]}}]}