{"type":"FeatureCollection","features":[{"type":"Feature","properties":{"osm_id":"way/39371990","name":"Ligne de Paris-Lyon à Marseille-Saint-Charles","source":"OpenStreetMap","railway":"rail"},"geometry":{"type":"LineString","coordinates":[[5.3549751,43.3527977],[5.359309,43.3499002]]}},{"type":"Feature","properties":{"osm_id":"way/39372359","name":"Ligne de Paris-Lyon à Marseille-Saint-Charles","source":"OpenStreetMap","railway":"rail"},"geometry":{"type":"LineString","coordinates":[[5.359309,43.3499002],[5.3596906,43.3496444],[5.3602652,43.3492612],[5.3609674,43.3487869],[5.3611578,43.3486601],[5.3616438,43.348337]]}},{"type":"Feature","properties":{"osm_id":"way/108493138","name":"Ligne de Paris-Lyon à Marseille-Saint-Charles","source":"OpenStreetMap","railway":"rail"},"geometry":{"type":"LineString","coordinates":[[5.3549499,43.352773],[5.3592868,43.349871]]}},{"type":"Feature","properties":{"osm_id":"way/108493143","name":"Ligne de Paris-Lyon à Marseille-Saint-Charles","source":"OpenStreetMap","railway":"rail"},"geometry":{"type":"LineString","coordinates":[[5.3592868,43.349871],[5.3594751,43.3497443],[5.3596594,43.3496202],[5.3602393,43.349233],[5.3609385,43.3487635],[5.3611352,43.3486313],[5.3616241,43.3483063]]}},{"type":"Feature","properties":{"osm_id":"way/108496874","name":null,"source":"OpenStreetMap","railway":"rail"},"geometry":{"type":"LineString","coordinates":[[5.3615886,43.3482818],[5.3611069,43.3485881],[5.3608517,43.348737],[5.3606687,43.3488459],[5.3604881,43.348968],[5.3603503,43.3490696],[5.3601503,43.3492289],[5.3599664,43.3493471]]}},{"type":"Feature","properties":{"osm_id":"way/108496875","name":null,"source":"OpenStreetMap","railway":"rail"},"geometry":{"type":"LineString","coordinates":[[5.3603503,43.3490696],[5.3605329,43.3489123],[5.3606525,43.3487801],[5.360751,43.3486493],[5.3608084,43.3485512]]}},{"type":"Feature","properties":{"osm_id":"way/108496883","name":null,"source":"OpenStreetMap","railway":"rail"},"geometry":{"type":"LineString","coordinates":[[5.3617112,43.3481967],[5.3618005,43.3481388],[5.3620899,43.3479517]]}},{"type":"Feature","properties":{"osm_id":"way/165194586","name":"Ligne de Lyon-Perrache à Marseille-Saint-Charles (via Grenoble)","source":"OpenStreetMap","railway":"rail"},"geometry":{"type":"LineString","coordinates":[[5.364561,43.3608071],[5.364664,43.3603665],[5.3647249,43.3601358],[5.3647726,43.3599613],[5.3648499,43.3597576],[5.3649688,43.3595029],[5.3650948,43.3593008],[5.3652629,43.3590473],[5.3654813,43.3588018],[5.3656115,43.358667],[5.3658522,43.3584428],[5.3661737,43.3581979],[5.3663853,43.3580634],[5.3666949,43.357878],[5.3670002,43.3577277],[5.3673074,43.3575924],[5.3677452,43.3574286],[5.3682,43.3572489],[5.3685943,43.357082],[5.3690136,43.3568729],[5.3694907,43.3565622],[5.369638,43.3564663]]}},{"type":"Feature","properties":{"osm_id":"way/165194595","name":"Ligne de Lyon-Perrache à Marseille-Saint-Charles (via Grenoble)","source":"OpenStreetMap","railway":"rail"},"geometry":{"type":"LineString","coordinates":[[5.369638,43.3564663],[5.3697904,43.3563649]]}},{"type":"Feature","properties":{"osm_id":"way/181777030","name":"Ligne de Lyon-Perrache à Marseille-Saint-Charles (via Grenoble)","source":"OpenStreetMap","railway":"rail"},"geometry":{"type":"LineString","coordinates":[[5.3697904,43.3563649],[5.3702991,43.3559129],[5.3707439,43.3554834],[5.3711096,43.3551397],[5.3712777,43.3549716],[5.3718225,43.3544327],[5.3723602,43.3539063],[5.3728503,43.3534386],[5.3730906,43.3532451],[5.3733177,43.3530842],[5.3735547,43.3529366],[5.3739121,43.3527508],[5.3743059,43.3525751],[5.3747605,43.3524192],[5.3752759,43.3522923],[5.3758661,43.3521841],[5.3770877,43.3519897],[5.3779656,43.3518529],[5.3784491,43.3517549],[5.3789171,43.3516312],[5.3793385,43.3514723],[5.3796744,43.3513003],[5.3799701,43.3511374],[5.3802813,43.3509214],[5.3805595,43.3506781],[5.3808724,43.3503334],[5.3811021,43.3499982],[5.3812565,43.3497017],[5.3813742,43.349358],[5.3814551,43.3489764],[5.3815166,43.3485542],[5.3815507,43.3482842],[5.3816523,43.3477227],[5.3817174,43.3473165],[5.3818224,43.3469166],[5.3819174,43.3466687],[5.3820505,43.3463928],[5.3821389,43.3462559],[5.3821975,43.3461651],[5.3822385,43.3461117]]}},{"type":"Feature","properties":{"osm_id":"way/243641075","name":"Ligne de Lyon-Perrache à Marseille-Saint-Charles (via Grenoble)","source":"OpenStreetMap","railway":"rail"},"geometry":{"type":"LineString","coordinates":[[5.3696554,43.3565212],[5.369796,43.3564208]]}},{"type":"Feature","properties":{"osm_id":"way/243641077","name":"Ligne de Lyon-Perrache à Marseille-Saint-Charles (via Grenoble)","source":"OpenStreetMap","railway":"rail"},"geometry":{"type":"LineString","coordinates":[[5.3646159,43.3608135],[5.3647187,43.3603737],[5.3647795,43.3601436],[5.3648267,43.3599706],[5.3649031,43.3597695],[5.3650206,43.3595178],[5.3651452,43.3593179],[5.3653115,43.3590671],[5.3655274,43.3588244],[5.3656562,43.3586911],[5.3658943,43.3584693],[5.3662122,43.3582271],[5.3664213,43.3580942],[5.3667282,43.3579104],[5.3670302,43.3577617],[5.3673346,43.3576277],[5.3677712,43.3574643],[5.3682273,43.3572842],[5.3686241,43.3571162],[5.3690475,43.356905],[5.3695388,43.3565948],[5.3696554,43.3565212]]}},{"type":"Feature","properties":{"osm_id":"way/243641082","name":"Ligne de Lyon-Perrache à Marseille-Saint-Charles (via Grenoble)","source":"OpenStreetMap","railway":"rail"},"geometry":{"type":"LineString","coordinates":[[5.369796,43.3564208],[5.370343,43.3559377],[5.3707883,43.3555078],[5.3711455,43.3551593],[5.3713223,43.3549957],[5.3718672,43.3544567],[5.3724047,43.3539306],[5.3728931,43.3534645],[5.3731306,43.3532732],[5.3733553,43.353114],[5.373589,43.3529684],[5.3739429,43.3527846],[5.3743324,43.3526107],[5.3747814,43.3524567],[5.3752916,43.3523311],[5.3758788,43.3522235],[5.3770995,43.3520292],[5.3779789,43.3518922],[5.3784652,43.3517874],[5.3789427,43.351667],[5.3793674,43.3515069],[5.3797072,43.351333],[5.3800062,43.3511682],[5.380322,43.350949],[5.3806042,43.3507022],[5.3809206,43.3503536],[5.3811531,43.3500144],[5.3813096,43.3497138],[5.3814288,43.349366],[5.3815102,43.3489815],[5.3815602,43.3485626],[5.3816059,43.3482888],[5.3817075,43.3477277],[5.3817724,43.3473226],[5.3818766,43.3469259],[5.3819704,43.3466808],[5.382102,43.3464082],[5.3821985,43.3462704],[5.3822643,43.3461818]]}},{"type":"Feature","properties":{"osm_id":"way/427074683","name":"Ligne de Paris-Lyon à Marseille-Saint-Charles","source":"OpenStreetMap","railway":"rail"},"geometry":{"type":"LineString","coordinates":[[5.3616438,43.348337],[5.3617567,43.3482614]]}},{"type":"Feature","properties":{"osm_id":"way/427074684","name":"Ligne de Paris-Lyon à Marseille-Saint-Charles","source":"OpenStreetMap","railway":"rail"},"geometry":{"type":"LineString","coordinates":[[5.3617362,43.3482335],[5.3621202,43.3479746]]}},{"type":"Feature","properties":{"osm_id":"way/427074685","name":"Ligne de Paris-Lyon à Marseille-Saint-Charles","source":"OpenStreetMap","railway":"rail"},"geometry":{"type":"LineString","coordinates":[[5.3616241,43.3483063],[5.3617362,43.3482335]]}},{"type":"Feature","properties":{"osm_id":"way/427074686","name":"Ligne de Paris-Lyon à Marseille-Saint-Charles","source":"OpenStreetMap","railway":"rail"},"geometry":{"type":"LineString","coordinates":[[5.3617567,43.3482614],[5.3621503,43.3479975]]}},{"type":"Feature","properties":{"osm_id":"way/427074734","name":null,"source":"OpenStreetMap","railway":"rail"},"geometry":{"type":"LineString","coordinates":[[5.3611352,43.3486313],[5.3615886,43.3482818]]}},{"type":"Feature","properties":{"osm_id":"way/427074737","name":null,"source":"OpenStreetMap","railway":"rail"},"geometry":{"type":"LineString","coordinates":[[5.3615886,43.3482818],[5.3616027,43.3482729]]}},{"type":"Feature","properties":{"osm_id":"way/967227060","name":null,"source":"OpenStreetMap","railway":"rail"},"geometry":{"type":"LineString","coordinates":[[5.3616027,43.3482729],[5.3617112,43.3481967]]}}]}