{"type":"FeatureCollection","features":[{"type":"Feature","properties":{"osm_id":"way/27775349","name":"Chemin de Saint-Antoine à Saint-Joseph","source":"OpenStreetMap","highway":"secondary","rang":"Voie principale"},"geometry":{"type":"LineString","coordinates":[[5.3705096,43.3551007],[5.3706179,43.3548991],[5.3706599,43.3548078],[5.3707273,43.3547093],[5.3708622,43.3545048],[5.3710682,43.3542551],[5.3712112,43.354093],[5.3714787,43.3537899],[5.3718839,43.3533077],[5.3719124,43.353277],[5.371929,43.353259],[5.3719877,43.3531978]]}},{"type":"Feature","properties":{"osm_id":"way/39372358","name":"Chemin de Saint-Louis au Rove","source":"OpenStreetMap","highway":"secondary","rang":"Voie principale"},"geometry":{"type":"LineString","coordinates":[[5.3567073,43.3484499],[5.3565941,43.3484157],[5.3564036,43.3483934],[5.3563244,43.3483701],[5.3561816,43.348328]]}},{"type":"Feature","properties":{"osm_id":"way/50827377","name":"Boulevard de la Padouane","source":"OpenStreetMap","highway":"residential","rang":"Desserte"},"geometry":{"type":"LineString","coordinates":[[5.365789,43.3533659],[5.3658579,43.3533861],[5.3658872,43.3533853],[5.3659201,43.3533846],[5.3662711,43.3533743],[5.3665119,43.3533688],[5.3667136,43.3533635],[5.3668873,43.3533589],[5.3670227,43.3533735],[5.3671275,43.353372],[5.3672279,43.3533706],[5.3673889,43.353353],[5.3680269,43.3533463],[5.3681782,43.3533447],[5.3683166,43.3533454],[5.3683453,43.3533441],[5.3683836,43.3533432],[5.3688611,43.3533332],[5.3692312,43.3533119],[5.3693472,43.3533052],[5.3695404,43.3532912],[5.369572,43.353289],[5.3696869,43.3532807],[5.3697443,43.3532772],[5.3698258,43.3532696],[5.3699903,43.3532543],[5.3701354,43.3532389],[5.3702008,43.3532308],[5.3703852,43.3531943],[5.3706595,43.3531667],[5.3707507,43.3531577],[5.371458,43.3530952],[5.3717247,43.3530697],[5.3717677,43.3530656],[5.3718066,43.3530619]]}},{"type":"Feature","properties":{"osm_id":"way/50827391","name":"Rue René d'Anjou","source":"OpenStreetMap","highway":"residential","rang":"Desserte"},"geometry":{"type":"LineString","coordinates":[[5.3656518,43.3528842],[5.3656894,43.3530397],[5.3657301,43.3532027],[5.3657453,43.3532636],[5.3657566,43.3533132],[5.365789,43.3533659]]}},{"type":"Feature","properties":{"osm_id":"way/50827393","name":"Traverse des Laitiers","source":"OpenStreetMap","highway":"residential","rang":"Desserte"},"geometry":{"type":"LineString","coordinates":[[5.3667105,43.3555457],[5.3668815,43.3555271],[5.3670768,43.3554878],[5.3671271,43.3554526],[5.3672356,43.3552078]]}},{"type":"Feature","properties":{"osm_id":"way/50827399","name":"Boulevard de L'Angelette","source":"OpenStreetMap","highway":"residential","rang":"Desserte"},"geometry":{"type":"LineString","coordinates":[[5.3665568,43.3559655],[5.3665899,43.3559681],[5.3666148,43.3559808],[5.366664,43.356038],[5.3672825,43.3566866]]}},{"type":"Feature","properties":{"osm_id":"way/50832081","name":"Impasse Dominique","source":"OpenStreetMap","highway":"residential","rang":"Desserte"},"geometry":{"type":"LineString","coordinates":[[5.3603602,43.3515703],[5.3603846,43.352213]]}},{"type":"Feature","properties":{"osm_id":"way/50832085","name":"Traverse Marie-Louise","source":"OpenStreetMap","highway":"residential","rang":"Desserte"},"geometry":{"type":"LineString","coordinates":[[5.3590533,43.3513288],[5.359205,43.3513727],[5.3593977,43.3514331],[5.3594897,43.3514619],[5.3594999,43.3514654],[5.359691,43.3515302],[5.3597502,43.3516669],[5.3598093,43.3517102],[5.3598334,43.351928],[5.3598881,43.3520421],[5.359984,43.3522389]]}},{"type":"Feature","properties":{"osm_id":"way/50832086","name":"Chemin Henri Beyle","source":"OpenStreetMap","highway":"residential","rang":"Desserte"},"geometry":{"type":"LineString","coordinates":[[5.3587081,43.3505614],[5.3588881,43.3506245],[5.3589253,43.3506936],[5.3589153,43.3507208],[5.3587614,43.3511379],[5.3587301,43.3512131],[5.3587187,43.3512356],[5.3585004,43.3516432],[5.3584683,43.3517039],[5.3581915,43.3521953],[5.3580612,43.3523754],[5.3580328,43.3524304],[5.3577229,43.3530225],[5.3575739,43.3533358],[5.3577021,43.3533534],[5.3577781,43.3533629],[5.3578664,43.3533626],[5.3580573,43.3532731],[5.3582388,43.353098],[5.3585507,43.352775],[5.3586381,43.3526771],[5.3587966,43.3525996],[5.3589084,43.3525514],[5.3593734,43.3524347],[5.3593959,43.3524292],[5.3596948,43.352356],[5.359984,43.3522389]]}},{"type":"Feature","properties":{"osm_id":"way/50832088","name":"Boulevard Catrano","source":"OpenStreetMap","highway":"residential","rang":"Desserte"},"geometry":{"type":"LineString","coordinates":[[5.3587187,43.3512356],[5.3587626,43.351279],[5.3587626,43.3513312],[5.3586298,43.3516345],[5.3586057,43.3516813],[5.3586372,43.3517095],[5.3588241,43.3517706],[5.3590341,43.3518532],[5.3594589,43.3520205],[5.3596251,43.3520476],[5.3598881,43.3520421],[5.3600587,43.3519678]]}},{"type":"Feature","properties":{"osm_id":"way/50832090","name":"Rue Germaine","source":"OpenStreetMap","highway":"residential","rang":"Desserte"},"geometry":{"type":"LineString","coordinates":[[5.3590341,43.3518532],[5.3591555,43.351695],[5.3593977,43.3514331],[5.3596289,43.3511144]]}},{"type":"Feature","properties":{"osm_id":"way/50832092","name":"Boulevard Beausoleil","source":"OpenStreetMap","highway":"residential","rang":"Desserte"},"geometry":{"type":"LineString","coordinates":[[5.3607364,43.3537901],[5.3606473,43.3533674],[5.360476,43.3529924],[5.3603716,43.3528906],[5.3602131,43.3527813],[5.3602361,43.3524885],[5.3602481,43.3523356],[5.3602518,43.3522887],[5.3602555,43.3522487]]}},{"type":"Feature","properties":{"osm_id":"way/50832094","name":"Allée du Plein Midi","source":"OpenStreetMap","highway":"residential","rang":"Desserte"},"geometry":{"type":"LineString","coordinates":[[5.3608516,43.3537694],[5.3607364,43.3537901],[5.3601333,43.353905]]}},{"type":"Feature","properties":{"osm_id":"way/50848250","name":"Rue René d'Anjou","source":"OpenStreetMap","highway":"residential","rang":"Desserte"},"geometry":{"type":"LineString","coordinates":[[5.365847,43.3536175],[5.365896,43.3536863],[5.3659241,43.3538778],[5.365918,43.3541753],[5.3658698,43.3543893],[5.3658633,43.354416],[5.3658469,43.3544833],[5.3658425,43.3546265],[5.365849,43.3546741],[5.3658785,43.3548764],[5.3658844,43.3549099],[5.3659393,43.3550788],[5.3661297,43.3553692],[5.3663618,43.3556669]]}},{"type":"Feature","properties":{"osm_id":"way/50848251","name":"Avenue Ibrahim Ali","source":"OpenStreetMap","highway":"residential","rang":"Desserte"},"geometry":{"type":"LineString","coordinates":[[5.3656518,43.3528842],[5.3655476,43.3524913],[5.3654431,43.3520906],[5.3654305,43.3520356],[5.3654105,43.3519483],[5.3653931,43.3518724],[5.3653742,43.3517866],[5.3653488,43.3516772],[5.3653283,43.3515903],[5.3652712,43.3513255],[5.3652515,43.3511212],[5.3652622,43.3510012],[5.3653179,43.3508315],[5.3654876,43.3504837]]}},{"type":"Feature","properties":{"osm_id":"way/52505112","name":"Chemin de Saint-Antoine à Saint-Joseph","source":"OpenStreetMap","highway":"residential","rang":"Desserte"},"geometry":{"type":"LineString","coordinates":[[5.3696175,43.3562881],[5.3696595,43.3563087],[5.369688,43.3563372],[5.369718,43.3564327],[5.3697257,43.3565815],[5.3697031,43.356632],[5.3696567,43.356688],[5.3695863,43.356737],[5.3691836,43.3569926],[5.3689849,43.3570985],[5.3689635,43.3571098],[5.3685397,43.3572987],[5.3684687,43.3573511],[5.3683817,43.357478],[5.3682224,43.3576226],[5.368068,43.35773],[5.3678267,43.3578068],[5.3675147,43.357862],[5.3671424,43.3579161],[5.3670677,43.3579645]]}},{"type":"Feature","properties":{"osm_id":"way/52505118","name":"Boulevard de la Gare","source":"OpenStreetMap","highway":"residential","rang":"Desserte"},"geometry":{"type":"LineString","coordinates":[[5.3671021,43.357141],[5.3671068,43.3570999],[5.3671207,43.3570804],[5.3674704,43.3568843]]}},{"type":"Feature","properties":{"osm_id":"way/52505119","name":"Rue René d'Anjou","source":"OpenStreetMap","highway":"secondary","rang":"Voie principale"},"geometry":{"type":"LineString","coordinates":[[5.3655336,43.3583343],[5.3656064,43.3582431],[5.3656457,43.3581883],[5.3657093,43.358075],[5.3657396,43.3580262],[5.3657501,43.3580098],[5.3658183,43.3578818],[5.3658482,43.3578481],[5.3659256,43.3577635]]}},{"type":"Feature","properties":{"osm_id":"way/52513134","name":"Traverse de la Michèle","source":"OpenStreetMap","highway":"residential","rang":"Desserte"},"geometry":{"type":"LineString","coordinates":[[5.369326,43.3586117],[5.3697142,43.3585343],[5.3702233,43.358412],[5.3703049,43.3583924],[5.3714419,43.3580871],[5.3715763,43.3581063],[5.3717016,43.3581458],[5.3718217,43.3582275],[5.3719962,43.3584273],[5.3722754,43.3587793],[5.3726776,43.3592676]]}},{"type":"Feature","properties":{"osm_id":"way/52513135","name":"Rue Auguste Gaudon","source":"OpenStreetMap","highway":"residential","rang":"Desserte"},"geometry":{"type":"LineString","coordinates":[[5.3689635,43.3571098],[5.3691266,43.3573658],[5.3691952,43.3574735],[5.3692286,43.357526],[5.3692523,43.3576129],[5.3691633,43.3576741],[5.3690367,43.3577582],[5.3690307,43.3578132],[5.369175,43.358228],[5.3693034,43.3585484],[5.369326,43.3586117]]}},{"type":"Feature","properties":{"osm_id":"way/52513136","name":"Boulevard Lombard","source":"OpenStreetMap","highway":"residential","rang":"Desserte"},"geometry":{"type":"LineString","coordinates":[[5.3691266,43.3573658],[5.3693291,43.3573296],[5.3695225,43.3573422],[5.3708871,43.3569913],[5.3709665,43.3569452],[5.3709836,43.3568652],[5.3708948,43.3567355],[5.3707181,43.3566336],[5.3705737,43.3565755],[5.3705787,43.3565088],[5.3707476,43.3563515],[5.3709178,43.3562257],[5.3711607,43.3560761],[5.3712404,43.3560427],[5.3715927,43.3558948],[5.37176,43.3558246],[5.3718685,43.3558093],[5.3719559,43.3558353],[5.3722208,43.3559948]]}},{"type":"Feature","properties":{"osm_id":"way/52513137","name":"Impasse du Verger","source":"OpenStreetMap","highway":"residential","rang":"Desserte"},"geometry":{"type":"LineString","coordinates":[[5.3703049,43.3583924],[5.370425,43.3585735],[5.3706561,43.3588983],[5.3708491,43.3591847],[5.3708826,43.3592344],[5.3709612,43.3593606],[5.3710196,43.3594908],[5.3712003,43.3596945]]}},{"type":"Feature","properties":{"osm_id":"way/52513138","name":"Traverse du Clos Fleuri","source":"OpenStreetMap","highway":"residential","rang":"Desserte"},"geometry":{"type":"LineString","coordinates":[[5.3694808,43.3589986],[5.3695393,43.359014],[5.3697305,43.35925]]}},{"type":"Feature","properties":{"osm_id":"way/52514071","name":null,"source":"OpenStreetMap","highway":"secondary_link","rang":"Voie principale"},"geometry":{"type":"LineString","coordinates":[[5.3613992,43.3493526],[5.3613503,43.3494149],[5.3613,43.3494683],[5.3612617,43.3495031],[5.361209,43.349538],[5.3610612,43.3495983],[5.3608597,43.349645],[5.3606805,43.3496658],[5.360498,43.3496699],[5.360301,43.3496527],[5.3601527,43.3496275],[5.3600193,43.349583]]}},{"type":"Feature","properties":{"osm_id":"way/52514072","name":"Avenue Paul Gaffarel","source":"OpenStreetMap","highway":"secondary","rang":"Voie principale"},"geometry":{"type":"LineString","coordinates":[[5.3600979,43.3495147],[5.3601909,43.3495427],[5.3602592,43.3495571],[5.3603357,43.3495685],[5.3604075,43.3495754],[5.3604672,43.3495783],[5.3605677,43.3495802],[5.3606555,43.3495783],[5.3607563,43.3495717],[5.3608467,43.3495597],[5.3609548,43.3495384],[5.3610749,43.3495062],[5.3611646,43.3494725],[5.3612423,43.3494398],[5.3613301,43.349392],[5.3613992,43.3493526]]}},{"type":"Feature","properties":{"osm_id":"way/52514073","name":"Avenue de Saint-Louis","source":"OpenStreetMap","highway":"tertiary","rang":"Voie principale"},"geometry":{"type":"LineString","coordinates":[[5.3572274,43.3537287],[5.3573046,43.3534949],[5.3574302,43.3532182],[5.3575825,43.3529488],[5.3576722,43.3527543],[5.357745,43.3526147],[5.3577739,43.3525536],[5.3578897,43.3523207],[5.3579273,43.3522406],[5.3581349,43.3518319],[5.3583666,43.3513759],[5.3586676,43.350732],[5.3587081,43.3505614],[5.3587154,43.350492],[5.3587343,43.3503137],[5.3587498,43.3501955],[5.3587612,43.3501079],[5.3587666,43.3500646],[5.3587724,43.3500267],[5.3587908,43.3499057],[5.3588124,43.3497229],[5.358853,43.349448],[5.3588563,43.3494256],[5.3588696,43.3492988],[5.3588735,43.3492555]]}},{"type":"Feature","properties":{"osm_id":"way/52514074","name":"Avenue Paul Gaffarel","source":"OpenStreetMap","highway":"secondary","rang":"Voie principale"},"geometry":{"type":"LineString","coordinates":[[5.3597755,43.3494086],[5.3600979,43.3495147]]}},{"type":"Feature","properties":{"osm_id":"way/52514075","name":"Avenue de Saint-Louis","source":"OpenStreetMap","highway":"tertiary","rang":"Voie principale"},"geometry":{"type":"LineString","coordinates":[[5.3588873,43.3491073],[5.3588905,43.3490851],[5.3588937,43.3490629],[5.3589107,43.3488829],[5.3589214,43.3487976],[5.3589581,43.3485064],[5.3590145,43.3480091],[5.3590323,43.3478555],[5.3590348,43.3478344],[5.3590526,43.3477107]]}},{"type":"Feature","properties":{"osm_id":"way/52514076","name":"Traverse du Cinéma","source":"OpenStreetMap","highway":"residential","rang":"Desserte"},"geometry":{"type":"LineString","coordinates":[[5.3589107,43.3488829],[5.359477,43.3488538]]}},{"type":"Feature","properties":{"osm_id":"way/52578869","name":"Autoroute du Soleil","source":"OpenStreetMap","highway":"motorway","rang":"Autoroute"},"geometry":{"type":"LineString","coordinates":[[5.3656953,43.352524],[5.3671871,43.3512174],[5.3678599,43.3506432]]}},{"type":"Feature","properties":{"osm_id":"way/52578870","name":"Autoroute du Soleil","source":"OpenStreetMap","highway":"motorway","rang":"Autoroute"},"geometry":{"type":"LineString","coordinates":[[5.3655495,43.3528671],[5.3651647,43.3532581],[5.3650619,43.353378],[5.3649036,43.3535711],[5.364689,43.3538305],[5.3645522,43.3540041],[5.364394,43.3542264],[5.3642465,43.3544409],[5.3641338,43.3546262],[5.3640078,43.3548408],[5.3639005,43.35503],[5.3638261,43.3551759],[5.3637664,43.3552894],[5.3636725,43.3554804],[5.3635813,43.355699],[5.3634928,43.3559193],[5.3633908,43.3561924],[5.3632085,43.3566936],[5.3629456,43.3574542],[5.3628434,43.3577635]]}},{"type":"Feature","properties":{"osm_id":"way/52578878","name":"Autoroute du Soleil","source":"OpenStreetMap","highway":"motorway","rang":"Autoroute"},"geometry":{"type":"LineString","coordinates":[[5.3654827,43.3527373],[5.3656953,43.352524]]}},{"type":"Feature","properties":{"osm_id":"way/52578879","name":"Autoroute du Soleil","source":"OpenStreetMap","highway":"motorway","rang":"Autoroute"},"geometry":{"type":"LineString","coordinates":[[5.3657438,43.3526659],[5.3655495,43.3528671]]}},{"type":"Feature","properties":{"osm_id":"way/52579009","name":null,"source":"OpenStreetMap","highway":"secondary_link","rang":"Voie principale"},"geometry":{"type":"LineString","coordinates":[[5.359671,43.3494706],[5.3593924,43.3493787],[5.3592269,43.3493315],[5.3591401,43.3493137],[5.3590563,43.3493062],[5.3589753,43.3493049],[5.3589544,43.3493041],[5.3588696,43.3492988]]}},{"type":"Feature","properties":{"osm_id":"way/52579010","name":null,"source":"OpenStreetMap","highway":"secondary_link","rang":"Voie principale"},"geometry":{"type":"LineString","coordinates":[[5.3600193,43.349583],[5.359671,43.3494706]]}},{"type":"Feature","properties":{"osm_id":"way/52579011","name":null,"source":"OpenStreetMap","highway":"secondary_link","rang":"Voie principale"},"geometry":{"type":"LineString","coordinates":[[5.3588696,43.3492988],[5.3588002,43.3492935],[5.3587555,43.3492771],[5.358648,43.3492441],[5.3582436,43.3491941],[5.357971,43.3491355],[5.357755,43.3490747],[5.3576356,43.3490246],[5.3575116,43.3489634],[5.3573976,43.3488945],[5.3572414,43.3487773],[5.3571503,43.3487156]]}},{"type":"Feature","properties":{"osm_id":"way/52579012","name":"Avenue Paul Gaffarel","source":"OpenStreetMap","highway":"secondary","rang":"Voie principale"},"geometry":{"type":"LineString","coordinates":[[5.3568962,43.3484007],[5.3571037,43.3484901],[5.3571537,43.3485433],[5.3571918,43.3485811],[5.3572256,43.3486118],[5.3573179,43.3487053],[5.3574114,43.3487734],[5.3577363,43.3489795]]}},{"type":"Feature","properties":{"osm_id":"way/53277471","name":"Boulevard Guigues","source":"OpenStreetMap","highway":"residential","rang":"Desserte"},"geometry":{"type":"LineString","coordinates":[[5.3593553,43.348668],[5.3594047,43.3481956],[5.3595828,43.3481877],[5.3596319,43.3481781],[5.3597059,43.3481431]]}},{"type":"Feature","properties":{"osm_id":"way/53277472","name":"Impasse Guigues","source":"OpenStreetMap","highway":"residential","rang":"Desserte"},"geometry":{"type":"LineString","coordinates":[[5.359638,43.3484087],[5.3596319,43.3481781]]}},{"type":"Feature","properties":{"osm_id":"way/53277473","name":"Rue Camau","source":"OpenStreetMap","highway":"residential","rang":"Desserte"},"geometry":{"type":"LineString","coordinates":[[5.3587666,43.3500646],[5.3586954,43.3500464],[5.357553,43.3497563],[5.3575366,43.3497368],[5.3576734,43.3494415]]}},{"type":"Feature","properties":{"osm_id":"way/53788973","name":"Rue de Septèmes","source":"OpenStreetMap","highway":"residential","rang":"Desserte"},"geometry":{"type":"LineString","coordinates":[[5.3576533,43.358646],[5.3577301,43.3586729],[5.3578108,43.3587012],[5.3581546,43.3588539],[5.358533,43.3590189],[5.3586626,43.3590425],[5.3587326,43.3590271],[5.3591353,43.358841],[5.3593298,43.3587617],[5.3595381,43.3586649],[5.3602896,43.3585771],[5.3604655,43.3585545],[5.3606394,43.3585316],[5.3607836,43.3585125],[5.3609729,43.3584892],[5.3610196,43.3584892],[5.3610653,43.3585108],[5.3611668,43.3586955],[5.3613257,43.3587545],[5.3613403,43.3587833],[5.3611792,43.3590338],[5.361147,43.359062],[5.3609691,43.3593161],[5.3607006,43.3597529],[5.3606449,43.3598496]]}},{"type":"Feature","properties":{"osm_id":"way/53788974","name":null,"source":"OpenStreetMap","highway":"residential","rang":"Desserte"},"geometry":{"type":"LineString","coordinates":[[5.3588241,43.3517706],[5.3583831,43.3524433]]}},{"type":"Feature","properties":{"osm_id":"way/53788975","name":"Traverse de l'Aqueduc","source":"OpenStreetMap","highway":"residential","rang":"Desserte"},"geometry":{"type":"LineString","coordinates":[[5.3575825,43.3529488],[5.3574922,43.3529465],[5.3574762,43.3529461],[5.3571581,43.3529631],[5.3570777,43.3530374],[5.3569897,43.3531237],[5.3568935,43.3533109],[5.3568052,43.353492],[5.3563057,43.3536019],[5.3562748,43.3536195],[5.356271,43.3536459]]}},{"type":"Feature","properties":{"osm_id":"way/53788976","name":null,"source":"OpenStreetMap","highway":"residential","rang":"Desserte"},"geometry":{"type":"LineString","coordinates":[[5.3571581,43.3529631],[5.3570266,43.3529762],[5.356931,43.3529708],[5.3568787,43.3529333],[5.356854,43.3528716],[5.3568659,43.3527615],[5.3568622,43.3526953],[5.3568539,43.3526515],[5.3568348,43.3526193],[5.3567984,43.3525963],[5.3567588,43.352586]]}},{"type":"Feature","properties":{"osm_id":"way/53788978","name":null,"source":"OpenStreetMap","highway":"residential","rang":"Desserte"},"geometry":{"type":"LineString","coordinates":[[5.3581142,43.3538053],[5.3582581,43.3541908],[5.358442,43.3546863]]}},{"type":"Feature","properties":{"osm_id":"way/53788979","name":"Traverse de la Viste","source":"OpenStreetMap","highway":"residential","rang":"Desserte"},"geometry":{"type":"LineString","coordinates":[[5.3575739,43.3533358],[5.3574187,43.3537224],[5.3574073,43.3537959],[5.3574374,43.3539356],[5.3574769,43.3540292],[5.3576038,43.3541303],[5.3578018,43.3542922]]}},{"type":"Feature","properties":{"osm_id":"way/53788980","name":"Impasse Campagne Bousquet","source":"OpenStreetMap","highway":"residential","rang":"Desserte"},"geometry":{"type":"LineString","coordinates":[[5.3574234,43.3563776],[5.3575027,43.356371],[5.3575666,43.3563656],[5.3588718,43.356262],[5.359006,43.3565103]]}},{"type":"Feature","properties":{"osm_id":"way/53788981","name":"Rue de la Tramontane","source":"OpenStreetMap","highway":"residential","rang":"Desserte"},"geometry":{"type":"LineString","coordinates":[[5.3584301,43.3537534],[5.3585414,43.3537792],[5.35869,43.3538069],[5.3587482,43.3543022],[5.3587679,43.3545184],[5.3587773,43.3546214],[5.3588137,43.3547128],[5.3588672,43.3548399],[5.3589426,43.3550582],[5.3591637,43.3553318],[5.3592344,43.3554192],[5.359253,43.3554423],[5.3593897,43.3556108],[5.3594764,43.3557234],[5.3595301,43.3557931]]}},{"type":"Feature","properties":{"osm_id":"way/53788983","name":"Traverse de la Viste","source":"OpenStreetMap","highway":"residential","rang":"Desserte"},"geometry":{"type":"LineString","coordinates":[[5.3572114,43.3542273],[5.3572899,43.3542663],[5.3573406,43.3543111],[5.3573629,43.3543775],[5.3573925,43.3544231],[5.3574387,43.3544611],[5.3574971,43.3545149],[5.3575768,43.3544776],[5.3577739,43.3543757],[5.3578024,43.3543221],[5.3578018,43.3542922],[5.3579084,43.3543433],[5.3579425,43.3543722],[5.3579985,43.3545063],[5.3580525,43.3546223],[5.3581244,43.3547766],[5.3581565,43.3548456],[5.3581961,43.3549504],[5.3582214,43.3551425]]}},{"type":"Feature","properties":{"osm_id":"way/53788984","name":"Impasse Barthélémy","source":"OpenStreetMap","highway":"residential","rang":"Desserte"},"geometry":{"type":"LineString","coordinates":[[5.3574971,43.3545149],[5.3575495,43.354714],[5.3576409,43.3549675],[5.3577094,43.3550958],[5.3579079,43.3550453],[5.3578041,43.3547874],[5.3577626,43.3547038],[5.3577149,43.3546892],[5.3575495,43.354714]]}},{"type":"Feature","properties":{"osm_id":"way/53788987","name":"Rue de la Largade","source":"OpenStreetMap","highway":"residential","rang":"Desserte"},"geometry":{"type":"LineString","coordinates":[[5.357325,43.3554137],[5.3574203,43.3554142],[5.3574478,43.3554144],[5.3574953,43.3554147],[5.3577889,43.3554163],[5.3578444,43.355427],[5.3578844,43.3554347],[5.3579448,43.3554594],[5.3579828,43.3554785],[5.3580547,43.3555342],[5.3581128,43.3556494],[5.3581945,43.35581],[5.3582471,43.3558468],[5.3583091,43.3558681],[5.3584051,43.3558746],[5.3585508,43.3558679],[5.3593264,43.3558319],[5.3595301,43.3557931],[5.3599652,43.3557497],[5.3603764,43.3556137],[5.3604911,43.3555758],[5.3607286,43.3554832],[5.3607118,43.3553212]]}},{"type":"Feature","properties":{"osm_id":"way/53788988","name":"Rue de l'Eissero","source":"OpenStreetMap","highway":"residential","rang":"Desserte"},"geometry":{"type":"LineString","coordinates":[[5.3599652,43.3557497],[5.3599761,43.3558991],[5.3600137,43.3564165],[5.3600282,43.3566166],[5.3600433,43.3566546],[5.3601011,43.3566678],[5.3601959,43.3566652],[5.3606118,43.3566537],[5.3607253,43.3566506],[5.3608909,43.3566504],[5.3609164,43.3566828],[5.36093,43.356717],[5.36095,43.3570982],[5.3609541,43.357157],[5.3609551,43.3572198]]}},{"type":"Feature","properties":{"osm_id":"way/53788989","name":"Boulevard du Plateau","source":"OpenStreetMap","highway":"residential","rang":"Desserte"},"geometry":{"type":"LineString","coordinates":[[5.3602036,43.3597228],[5.3603027,43.359113],[5.3602553,43.3589172],[5.3602896,43.3585771]]}},{"type":"Feature","properties":{"osm_id":"way/53788990","name":"Impasse Guichard","source":"OpenStreetMap","highway":"residential","rang":"Desserte"},"geometry":{"type":"LineString","coordinates":[[5.3587743,43.3594876],[5.358989,43.3594591],[5.3590522,43.3594541],[5.3592093,43.3589933],[5.3591353,43.358841]]}},{"type":"Feature","properties":{"osm_id":"way/53794021","name":"Autoroute du Soleil","source":"OpenStreetMap","highway":"motorway","rang":"Autoroute"},"geometry":{"type":"LineString","coordinates":[[5.3681581,43.3503899],[5.3687959,43.3498406],[5.3705322,43.348345]]}},{"type":"Feature","properties":{"osm_id":"way/53794022","name":"Avenue Ibrahim Ali","source":"OpenStreetMap","highway":"residential","rang":"Desserte"},"geometry":{"type":"LineString","coordinates":[[5.3659863,43.3494743],[5.3662787,43.3488742],[5.3663141,43.3487981],[5.3664122,43.3486031],[5.3664724,43.3484853],[5.3665386,43.3483532],[5.366586,43.3482035],[5.3665729,43.3481015],[5.36653,43.348002],[5.3663898,43.3477596],[5.3662576,43.3475311],[5.3661123,43.3472559],[5.3660938,43.3471309],[5.3660845,43.347068],[5.3661081,43.3467392],[5.3661109,43.3466827],[5.3661183,43.346536],[5.3661295,43.3463133]]}},{"type":"Feature","properties":{"osm_id":"way/53794023","name":"Autoroute du Soleil","source":"OpenStreetMap","highway":"motorway","rang":"Autoroute"},"geometry":{"type":"LineString","coordinates":[[5.3679694,43.3507379],[5.366534,43.3519717],[5.3657438,43.3526659]]}},{"type":"Feature","properties":{"osm_id":"way/53794035","name":"Avenue Ibrahim Ali","source":"OpenStreetMap","highway":"residential","rang":"Desserte"},"geometry":{"type":"LineString","coordinates":[[5.3654876,43.3504837],[5.3655678,43.3503221],[5.3659863,43.3494743]]}},{"type":"Feature","properties":{"osm_id":"way/53794036","name":"Autoroute du Soleil","source":"OpenStreetMap","highway":"motorway","rang":"Autoroute"},"geometry":{"type":"LineString","coordinates":[[5.3678599,43.3506432],[5.3681581,43.3503899]]}},{"type":"Feature","properties":{"osm_id":"way/53794037","name":"Autoroute du Soleil","source":"OpenStreetMap","highway":"motorway","rang":"Autoroute"},"geometry":{"type":"LineString","coordinates":[[5.3682753,43.3504877],[5.3679694,43.3507379]]}},{"type":"Feature","properties":{"osm_id":"way/53798007","name":"Impasse Giraud","source":"OpenStreetMap","highway":"residential","rang":"Desserte"},"geometry":{"type":"LineString","coordinates":[[5.3707476,43.3563515],[5.3710323,43.3565249],[5.3712572,43.3566276]]}},{"type":"Feature","properties":{"osm_id":"way/53798010","name":"Boulevard Provençal","source":"OpenStreetMap","highway":"residential","rang":"Desserte"},"geometry":{"type":"LineString","coordinates":[[5.3670677,43.3579645],[5.3672948,43.3581979],[5.3673712,43.3584631],[5.3673997,43.3587347],[5.367418,43.359016],[5.3674496,43.3592931],[5.3675141,43.359514],[5.3676935,43.3598159],[5.3679472,43.360005],[5.3683235,43.3600842],[5.3684458,43.3600866],[5.3685979,43.3600896],[5.369187,43.3600383],[5.3692631,43.3600402],[5.3693261,43.3600699]]}},{"type":"Feature","properties":{"osm_id":"way/54032763","name":"Chemin de la Madrague Ville","source":"OpenStreetMap","highway":"tertiary","rang":"Voie principale"},"geometry":{"type":"LineString","coordinates":[[5.3560315,43.3482428],[5.3559326,43.3481615],[5.3558886,43.3481014],[5.3557663,43.347934]]}},{"type":"Feature","properties":{"osm_id":"way/54032770","name":"Chemin de Saint-Louis au Rove","source":"OpenStreetMap","highway":"secondary","rang":"Voie principale"},"geometry":{"type":"LineString","coordinates":[[5.3560315,43.3482428],[5.3560471,43.348217],[5.3560745,43.3481972],[5.3561099,43.3481859],[5.3561485,43.3481847],[5.3561852,43.3481937]]}},{"type":"Feature","properties":{"osm_id":"way/54032771","name":null,"source":"OpenStreetMap","highway":"residential","rang":"Desserte"},"geometry":{"type":"LineString","coordinates":[[5.3560517,43.3578832],[5.3562003,43.3574641]]}},{"type":"Feature","properties":{"osm_id":"way/54032774","name":null,"source":"OpenStreetMap","highway":"residential","rang":"Desserte"},"geometry":{"type":"LineString","coordinates":[[5.3562003,43.3574641],[5.356221,43.3573993],[5.3562443,43.3573719],[5.3563059,43.3572993],[5.3562985,43.3568513],[5.3562497,43.3567726],[5.3561025,43.356772],[5.3557412,43.3568166],[5.3556128,43.3568433],[5.355608,43.3569138],[5.3558274,43.3570074]]}},{"type":"Feature","properties":{"osm_id":"way/54032781","name":"Boulevard d'Hanoï","source":"OpenStreetMap","highway":"residential","rang":"Desserte"},"geometry":{"type":"LineString","coordinates":[[5.3576117,43.3582846],[5.3575263,43.3582851],[5.3566975,43.3580575],[5.3560517,43.3578832],[5.3557175,43.3577953],[5.3552996,43.3576862],[5.3552434,43.3576715]]}},{"type":"Feature","properties":{"osm_id":"way/54037357","name":"Chemin de Saint-Louis au Rove","source":"OpenStreetMap","highway":"tertiary","rang":"Voie principale"},"geometry":{"type":"LineString","coordinates":[[5.3568962,43.3484007],[5.3571093,43.3483959],[5.357582,43.3483547]]}},{"type":"Feature","properties":{"osm_id":"way/61976426","name":null,"source":"OpenStreetMap","highway":"residential","rang":"Desserte"},"geometry":{"type":"LineString","coordinates":[[5.3724125,43.3498005],[5.3709966,43.3497189],[5.370926,43.3497366],[5.3708684,43.3497594],[5.3708146,43.3497929]]}},{"type":"Feature","properties":{"osm_id":"way/61976430","name":"Rue Le Chatelier","source":"OpenStreetMap","highway":"secondary","rang":"Voie principale"},"geometry":{"type":"LineString","coordinates":[[5.3752329,43.3491658],[5.3750249,43.3490909],[5.3750019,43.3490784],[5.3748708,43.3490201],[5.3747626,43.3489911],[5.3745616,43.3489641],[5.3742212,43.3489467],[5.3741658,43.348944],[5.3740716,43.3489395],[5.3738525,43.348929],[5.3736798,43.3489208],[5.3725006,43.3488643],[5.3722656,43.3488524],[5.3720256,43.3488359],[5.3719016,43.3488188],[5.3717074,43.3487891],[5.3715233,43.3487481],[5.371291,43.3486724],[5.3711128,43.3486039],[5.3709427,43.3485206],[5.3707927,43.3484182]]}},{"type":"Feature","properties":{"osm_id":"way/68733227","name":"Chemin de La Mûre","source":"OpenStreetMap","highway":"residential","rang":"Desserte"},"geometry":{"type":"LineString","coordinates":[[5.3657501,43.3580098],[5.3658134,43.3580222],[5.365869,43.3580382],[5.3659248,43.358055],[5.3659556,43.3580748],[5.3659822,43.3581069],[5.365991,43.3581447],[5.3659804,43.3581713],[5.3659594,43.3581894],[5.365852,43.358269],[5.3656912,43.3583954],[5.3655082,43.3585619],[5.3654072,43.3586716],[5.3653531,43.3587586],[5.3653225,43.3588342],[5.3653105,43.3588894],[5.3653132,43.3589523]]}},{"type":"Feature","properties":{"osm_id":"way/68733261","name":"Chemin de La Mûre","source":"OpenStreetMap","highway":"residential","rang":"Desserte"},"geometry":{"type":"LineString","coordinates":[[5.3653132,43.3589523],[5.3653976,43.3591653]]}},{"type":"Feature","properties":{"osm_id":"way/79505110","name":"Traverse Adoul","source":"OpenStreetMap","highway":"residential","rang":"Desserte"},"geometry":{"type":"LineString","coordinates":[[5.357745,43.3526147],[5.3576747,43.3525937]]}},{"type":"Feature","properties":{"osm_id":"way/79817264","name":"Rue Serge Douriant","source":"OpenStreetMap","highway":"residential","rang":"Desserte"},"geometry":{"type":"LineString","coordinates":[[5.3609551,43.3572198],[5.3605388,43.3572401],[5.3604022,43.3572467],[5.3601399,43.3572595],[5.3600587,43.3572848],[5.3599443,43.357292],[5.3598351,43.357299],[5.3597439,43.3572809],[5.3597244,43.3572821],[5.3592848,43.3573082],[5.359226,43.3573117],[5.3590456,43.3573233],[5.3589486,43.3573296],[5.3588858,43.3573519],[5.3588039,43.357358],[5.3586931,43.3573663],[5.358619,43.3573497],[5.358571,43.3573523],[5.358393,43.3573636],[5.3582006,43.3573758],[5.3581722,43.3573776],[5.3576948,43.3574078],[5.3576544,43.3574104],[5.3576199,43.3574126],[5.3575263,43.3574185]]}},{"type":"Feature","properties":{"osm_id":"way/82132845","name":"Autoroute du Soleil","source":"OpenStreetMap","highway":"motorway","rang":"Autoroute"},"geometry":{"type":"LineString","coordinates":[[5.3708688,43.3482504],[5.370654,43.3484337]]}},{"type":"Feature","properties":{"osm_id":"way/82132847","name":"Autoroute du Soleil","source":"OpenStreetMap","highway":"motorway","rang":"Autoroute"},"geometry":{"type":"LineString","coordinates":[[5.370654,43.3484337],[5.3689032,43.3499455],[5.3682753,43.3504877]]}},{"type":"Feature","properties":{"osm_id":"way/82132849","name":"Autoroute du Soleil","source":"OpenStreetMap","highway":"motorway","rang":"Autoroute"},"geometry":{"type":"LineString","coordinates":[[5.3705322,43.348345],[5.3707357,43.3481664]]}},{"type":"Feature","properties":{"osm_id":"way/91672829","name":"Chemin de Saint-Antoine à Saint-Joseph","source":"OpenStreetMap","highway":"secondary","rang":"Voie principale"},"geometry":{"type":"LineString","coordinates":[[5.3641355,43.3599417],[5.3642957,43.3598345],[5.3644664,43.3596804],[5.3645854,43.3595221],[5.3647117,43.3593618],[5.3649204,43.3590651],[5.3651846,43.3587091],[5.3651986,43.3586902],[5.3653189,43.3585369],[5.3653812,43.3584569],[5.3653911,43.3584449],[5.3654037,43.3584287],[5.3655336,43.3583343]]}},{"type":"Feature","properties":{"osm_id":"way/118043201","name":"Avenue Paul Gaffarel","source":"OpenStreetMap","highway":"secondary","rang":"Voie principale"},"geometry":{"type":"LineString","coordinates":[[5.3571503,43.3487156],[5.3570001,43.3486262],[5.3569749,43.3486138],[5.3567073,43.3484499]]}},{"type":"Feature","properties":{"osm_id":"way/118043209","name":"Chemin de Saint-Louis au Rove","source":"OpenStreetMap","highway":"secondary","rang":"Voie principale"},"geometry":{"type":"LineString","coordinates":[[5.3564036,43.3483934],[5.3563249,43.3483952],[5.3561836,43.3483984],[5.3560562,43.3484143],[5.3558899,43.3484641]]}},{"type":"Feature","properties":{"osm_id":"way/118043213","name":"Chemin de Saint-Louis au Rove","source":"OpenStreetMap","highway":"tertiary","rang":"Voie principale"},"geometry":{"type":"LineString","coordinates":[[5.357582,43.3483547],[5.3574329,43.3484129],[5.3572814,43.348446],[5.3571037,43.3484901],[5.3569929,43.3484921],[5.35685,43.3484799],[5.3567073,43.3484499]]}},{"type":"Feature","properties":{"osm_id":"way/118043214","name":"Chemin de Saint-Louis au Rove","source":"OpenStreetMap","highway":"secondary","rang":"Voie principale"},"geometry":{"type":"LineString","coordinates":[[5.3541153,43.3508286],[5.3541494,43.3507161],[5.3541573,43.3506497],[5.3542351,43.3502303],[5.3542369,43.3500795],[5.3541729,43.3498589],[5.3541439,43.349682],[5.3541559,43.3495944],[5.3541761,43.3495168],[5.3542616,43.3493972],[5.354426,43.349275],[5.3553398,43.3487276],[5.3557076,43.3485073],[5.3559286,43.348387],[5.3560345,43.3482852]]}},{"type":"Feature","properties":{"osm_id":"way/125357681","name":"Place Jean Vassas","source":"OpenStreetMap","highway":"residential","rang":"Desserte"},"geometry":{"type":"LineString","coordinates":[[5.359984,43.3522389],[5.3601673,43.3521977],[5.3602601,43.3521943],[5.3603846,43.352213]]}},{"type":"Feature","properties":{"osm_id":"way/125357682","name":"Chemin Henri Beyle","source":"OpenStreetMap","highway":"residential","rang":"Desserte"},"geometry":{"type":"LineString","coordinates":[[5.362116,43.3528849],[5.3620371,43.3528803],[5.361965,43.3528337],[5.3617117,43.352569],[5.3616127,43.3524949],[5.3613491,43.352369],[5.3611491,43.3523006],[5.3608646,43.3522741],[5.3606022,43.3522626],[5.360482,43.3522427],[5.3603846,43.352213]]}},{"type":"Feature","properties":{"osm_id":"way/125357691","name":"Boulevard des Créneaux","source":"OpenStreetMap","highway":"residential","rang":"Desserte"},"geometry":{"type":"LineString","coordinates":[[5.3603846,43.352213],[5.3603339,43.3522446],[5.3603381,43.352297]]}},{"type":"Feature","properties":{"osm_id":"way/125359471","name":"Chemin de Saint-Louis au Rove","source":"OpenStreetMap","highway":"secondary","rang":"Voie principale"},"geometry":{"type":"LineString","coordinates":[[5.3562341,43.3482383],[5.3563598,43.3483022],[5.3564747,43.3483395],[5.3565933,43.3483702],[5.3567262,43.3483836],[5.3568962,43.3484007]]}},{"type":"Feature","properties":{"osm_id":"way/125359472","name":"Chemin de Saint-Louis au Rove","source":"OpenStreetMap","highway":"secondary","rang":"Voie principale"},"geometry":{"type":"LineString","coordinates":[[5.3561469,43.3483358],[5.3558899,43.3484641],[5.3554664,43.3487213],[5.355387,43.3487695],[5.3544116,43.3493619],[5.3542968,43.3494696],[5.3542325,43.3495984],[5.354223,43.3497309],[5.3543142,43.3501034],[5.3543115,43.3502429],[5.35423,43.3507267],[5.3542238,43.3508412]]}},{"type":"Feature","properties":{"osm_id":"way/141479775","name":"Rue Le Chatelier","source":"OpenStreetMap","highway":"secondary","rang":"Voie principale"},"geometry":{"type":"LineString","coordinates":[[5.3705978,43.3482029],[5.3708501,43.3483899]]}},{"type":"Feature","properties":{"osm_id":"way/164938248","name":"Avenue Paul Gaffarel","source":"OpenStreetMap","highway":"secondary","rang":"Voie principale"},"geometry":{"type":"LineString","coordinates":[[5.3597755,43.3494086],[5.3594035,43.3492876],[5.3592648,43.3492482],[5.3591488,43.3492248],[5.3590244,43.3492015],[5.3584642,43.3491389],[5.3581698,43.3490936],[5.3578744,43.3490222],[5.3577363,43.3489795]]}},{"type":"Feature","properties":{"osm_id":"way/181511032","name":"Autoroute du Soleil","source":"OpenStreetMap","highway":"motorway","rang":"Autoroute"},"geometry":{"type":"LineString","coordinates":[[5.3628434,43.3577635],[5.3626992,43.358177],[5.3611535,43.3626071],[5.3610965,43.3627675],[5.3610171,43.3629925]]}},{"type":"Feature","properties":{"osm_id":"way/181512043","name":"Autoroute du Soleil","source":"OpenStreetMap","highway":"motorway","rang":"Autoroute"},"geometry":{"type":"LineString","coordinates":[[5.3607112,43.3673819],[5.360656,43.3666671],[5.3606335,43.3664211],[5.360604,43.3659545],[5.3605692,43.3655703],[5.3605423,43.3652388],[5.3605397,43.3649541],[5.3605504,43.3645466],[5.3605799,43.3642619],[5.3606309,43.3639168],[5.3606818,43.3636418],[5.3607623,43.3633279],[5.3608344,43.36306],[5.361649,43.3607096],[5.3627627,43.3574963],[5.3629503,43.3569549],[5.3631197,43.3564605],[5.3633998,43.3557234],[5.3636855,43.3551199],[5.3637932,43.3549072],[5.3639702,43.3546087],[5.3641687,43.3542966],[5.3643806,43.3539944],[5.3646568,43.3536473],[5.3649063,43.353341],[5.3651638,43.3530524],[5.3653703,43.3528476],[5.3654827,43.3527373]]}},{"type":"Feature","properties":{"osm_id":"way/182017854","name":"Rue de l'Eissero","source":"OpenStreetMap","highway":"residential","rang":"Desserte"},"geometry":{"type":"LineString","coordinates":[[5.3608909,43.3566504],[5.3608876,43.3565647],[5.3608851,43.356501],[5.3608746,43.3562306],[5.3608629,43.3560847]]}},{"type":"Feature","properties":{"osm_id":"way/183744260","name":"Boulevard de L'Angelette","source":"OpenStreetMap","highway":"secondary","rang":"Voie principale"},"geometry":{"type":"LineString","coordinates":[[5.367568,43.357126],[5.3678059,43.3571281],[5.3678832,43.3571225],[5.3679844,43.3571001],[5.368126,43.3570668]]}},{"type":"Feature","properties":{"osm_id":"way/183744261","name":"Boulevard de la Gare","source":"OpenStreetMap","highway":"secondary","rang":"Voie principale"},"geometry":{"type":"LineString","coordinates":[[5.3671021,43.357141],[5.3672967,43.3571207],[5.3674691,43.3571233],[5.367568,43.357126]]}},{"type":"Feature","properties":{"osm_id":"way/183744262","name":"Chemin de Saint-Antoine à Saint-Joseph","source":"OpenStreetMap","highway":"secondary","rang":"Voie principale"},"geometry":{"type":"LineString","coordinates":[[5.3697163,43.3560817],[5.3696606,43.3562324],[5.3696175,43.3562881]]}},{"type":"Feature","properties":{"osm_id":"way/189362596","name":"Chemin de Saint-Antoine à Saint-Joseph","source":"OpenStreetMap","highway":"secondary","rang":"Voie principale"},"geometry":{"type":"LineString","coordinates":[[5.3655336,43.3583343],[5.3654714,43.3584614],[5.3654593,43.3584742],[5.3653041,43.3586575],[5.3652135,43.3587824],[5.3649823,43.3590849],[5.3648806,43.3592917],[5.3647474,43.3595763],[5.3646732,43.3597065],[5.3645818,43.3598083],[5.3644198,43.3599125],[5.3642061,43.3600426],[5.3640977,43.3601547]]}},{"type":"Feature","properties":{"osm_id":"way/210229648","name":"Boulevard de L'Angelette","source":"OpenStreetMap","highway":"residential","rang":"Desserte"},"geometry":{"type":"LineString","coordinates":[[5.3672825,43.3566866],[5.3674039,43.3568144],[5.3674704,43.3568843]]}},{"type":"Feature","properties":{"osm_id":"way/210229649","name":"Rue René d'Anjou","source":"OpenStreetMap","highway":"residential","rang":"Desserte"},"geometry":{"type":"LineString","coordinates":[[5.366018,43.3573805],[5.3663173,43.3568092],[5.3663827,43.3566514],[5.3664652,43.3563404],[5.3665236,43.3560198],[5.3665363,43.3559808],[5.3665568,43.3559655]]}},{"type":"Feature","properties":{"osm_id":"way/237969966","name":"Rue Serge Douriant","source":"OpenStreetMap","highway":"residential","rang":"Desserte"},"geometry":{"type":"LineString","coordinates":[[5.3615206,43.3571849],[5.3612265,43.3572064],[5.3610479,43.3572152],[5.3609551,43.3572198]]}},{"type":"Feature","properties":{"osm_id":"way/270404037","name":"Impasse Saint-Paul","source":"OpenStreetMap","highway":"residential","rang":"Desserte"},"geometry":{"type":"LineString","coordinates":[[5.3575603,43.3577569],[5.3574736,43.357754],[5.3570135,43.3577386],[5.3569677,43.3577102],[5.3568957,43.3576478],[5.3567956,43.3575819]]}},{"type":"Feature","properties":{"osm_id":"way/271148523","name":"Rue Lucia Tichadou","source":"OpenStreetMap","highway":"residential","rang":"Desserte"},"geometry":{"type":"LineString","coordinates":[[5.3576662,43.3588201],[5.3575806,43.3588181],[5.3574373,43.3588147],[5.3568069,43.3587998]]}},{"type":"Feature","properties":{"osm_id":"way/271148527","name":"Rue Lucia Tichadou","source":"OpenStreetMap","highway":"residential","rang":"Desserte"},"geometry":{"type":"LineString","coordinates":[[5.3568069,43.3587998],[5.3570305,43.3593679]]}},{"type":"Feature","properties":{"osm_id":"way/314413734","name":"Impasse Gavot","source":"OpenStreetMap","highway":"residential","rang":"Desserte"},"geometry":{"type":"LineString","coordinates":[[5.357619,43.3584174],[5.357705,43.3584128],[5.3580004,43.3583968],[5.3581394,43.3583894],[5.3583593,43.3583761],[5.3584325,43.3583524],[5.3586871,43.3583335],[5.3590489,43.3583155],[5.3591893,43.3583088]]}},{"type":"Feature","properties":{"osm_id":"way/317199644","name":"Avenue Auguste Gaudon","source":"OpenStreetMap","highway":"residential","rang":"Desserte"},"geometry":{"type":"LineString","coordinates":[[5.3694957,43.3600585],[5.3692201,43.3591685],[5.3692231,43.3591348],[5.3694735,43.3590247],[5.3694808,43.3589986],[5.369326,43.3586117]]}},{"type":"Feature","properties":{"osm_id":"way/326384444","name":"Rue Le Chatelier","source":"OpenStreetMap","highway":"secondary","rang":"Voie principale"},"geometry":{"type":"LineString","coordinates":[[5.3676905,43.3469074],[5.3680231,43.3469813],[5.3684488,43.3470878],[5.3687212,43.3471346],[5.3687561,43.3471406],[5.3689778,43.3471724],[5.3691116,43.3471947],[5.3692796,43.3472349],[5.3694459,43.3472832],[5.3696787,43.347385],[5.3698348,43.3474787],[5.3699535,43.3475549],[5.370059,43.3476316],[5.3701682,43.3477355],[5.3702774,43.3478513],[5.3703548,43.3479459],[5.3704661,43.34808],[5.3705978,43.3482029]]}},{"type":"Feature","properties":{"osm_id":"way/331841555","name":"Boulevard des Créneaux","source":"OpenStreetMap","highway":"residential","rang":"Desserte"},"geometry":{"type":"LineString","coordinates":[[5.3603381,43.352297],[5.3603711,43.3523153],[5.360722,43.3525098],[5.3607465,43.3525234],[5.3607961,43.3525926],[5.3609682,43.3528547],[5.3610642,43.353013],[5.3612283,43.3535287],[5.3613183,43.3536853],[5.3614204,43.3538631],[5.3614737,43.3540112],[5.3619138,43.3547134],[5.3619429,43.3548966],[5.3618442,43.3551731],[5.3617474,43.3554043],[5.3617497,43.3556493],[5.3617702,43.3558914]]}},{"type":"Feature","properties":{"osm_id":"way/331841556","name":"Boulevard des Créneaux","source":"OpenStreetMap","highway":"residential","rang":"Desserte"},"geometry":{"type":"LineString","coordinates":[[5.3603381,43.352297],[5.3602555,43.3522487]]}},{"type":"Feature","properties":{"osm_id":"way/331849766","name":"Boulevard Beausoleil","source":"OpenStreetMap","highway":"residential","rang":"Desserte"},"geometry":{"type":"LineString","coordinates":[[5.3602555,43.3522487],[5.3602601,43.3521943]]}},{"type":"Feature","properties":{"osm_id":"way/331884232","name":"Boulevard de L'Angelette","source":"OpenStreetMap","highway":"secondary","rang":"Voie principale"},"geometry":{"type":"LineString","coordinates":[[5.3696175,43.3562881],[5.3694658,43.3564237],[5.3692987,43.3565256],[5.3690971,43.3566218]]}},{"type":"Feature","properties":{"osm_id":"way/331884233","name":"Boulevard de L'Angelette","source":"OpenStreetMap","highway":"secondary","rang":"Voie principale"},"geometry":{"type":"LineString","coordinates":[[5.3690971,43.3566218],[5.369328,43.3564019]]}},{"type":"Feature","properties":{"osm_id":"way/331884234","name":null,"source":"OpenStreetMap","highway":"residential","rang":"Desserte"},"geometry":{"type":"LineString","coordinates":[[5.3696175,43.3562881],[5.3694228,43.3564116],[5.369368,43.3564136],[5.369328,43.3564019]]}},{"type":"Feature","properties":{"osm_id":"way/331884235","name":"Chemin de Saint-Antoine à Saint-Joseph","source":"OpenStreetMap","highway":"residential","rang":"Desserte"},"geometry":{"type":"LineString","coordinates":[[5.3696296,43.3560554],[5.3697329,43.3558733],[5.3698181,43.3557544],[5.3699923,43.3554904],[5.3700152,43.3553559],[5.3701234,43.3552576],[5.3703038,43.355117],[5.3704814,43.3549749],[5.3705197,43.3549202],[5.3705308,43.3548883]]}},{"type":"Feature","properties":{"osm_id":"way/331884238","name":"Chemin de Saint-Antoine à Saint-Joseph","source":"OpenStreetMap","highway":"secondary","rang":"Voie principale"},"geometry":{"type":"LineString","coordinates":[[5.3697163,43.3560817],[5.3699809,43.3557246],[5.3700956,43.3555551],[5.3702344,43.3553739],[5.3705096,43.3551007]]}},{"type":"Feature","properties":{"osm_id":"way/331884239","name":"Chemin de Saint-Antoine à Saint-Joseph","source":"OpenStreetMap","highway":"residential","rang":"Desserte"},"geometry":{"type":"LineString","coordinates":[[5.3696175,43.3562881],[5.3695626,43.3562545],[5.3695509,43.3562283],[5.3695595,43.35618]]}},{"type":"Feature","properties":{"osm_id":"way/331884240","name":null,"source":"OpenStreetMap","highway":"residential","rang":"Desserte"},"geometry":{"type":"LineString","coordinates":[[5.3694168,43.3561714],[5.369528,43.3560835],[5.3695803,43.3560582]]}},{"type":"Feature","properties":{"osm_id":"way/342038145","name":"Chemin de Saint-Antoine à Saint-Joseph","source":"OpenStreetMap","highway":"residential","rang":"Desserte"},"geometry":{"type":"LineString","coordinates":[[5.3652135,43.3587824],[5.3648291,43.3595639],[5.3646622,43.3598553],[5.3645372,43.3600207],[5.3644409,43.3600983]]}},{"type":"Feature","properties":{"osm_id":"way/342066471","name":"Traverse du Clos Fleuri","source":"OpenStreetMap","highway":"residential","rang":"Desserte"},"geometry":{"type":"LineString","coordinates":[[5.370011,43.3590979],[5.3698802,43.3588165],[5.3697142,43.3585343]]}},{"type":"Feature","properties":{"osm_id":"way/342738939","name":"Boulevard de la Gare","source":"OpenStreetMap","highway":"secondary","rang":"Voie principale"},"geometry":{"type":"LineString","coordinates":[[5.3667273,43.3573023],[5.3668022,43.3572414],[5.3668618,43.3572058],[5.3669576,43.3571656],[5.3671021,43.357141]]}},{"type":"Feature","properties":{"osm_id":"way/342738942","name":"Impasse de la Thèse","source":"OpenStreetMap","highway":"residential","rang":"Desserte"},"geometry":{"type":"LineString","coordinates":[[5.3702233,43.358412],[5.3703198,43.3586472],[5.3703855,43.3588459],[5.3704144,43.3590413],[5.370435,43.3592214],[5.3704524,43.3596209]]}},{"type":"Feature","properties":{"osm_id":"way/363325769","name":"Boulevard de L'Angelette","source":"OpenStreetMap","highway":"residential","rang":"Desserte"},"geometry":{"type":"LineString","coordinates":[[5.3674704,43.3568843],[5.3675478,43.3569559],[5.3677261,43.3571044],[5.3677629,43.3571192],[5.3678059,43.3571281]]}},{"type":"Feature","properties":{"osm_id":"way/363325770","name":"Boulevard de L'Angelette","source":"OpenStreetMap","highway":"secondary","rang":"Voie principale"},"geometry":{"type":"LineString","coordinates":[[5.369328,43.3564019],[5.3695595,43.35618]]}},{"type":"Feature","properties":{"osm_id":"way/363325771","name":"Boulevard de L'Angelette","source":"OpenStreetMap","highway":"secondary","rang":"Voie principale"},"geometry":{"type":"LineString","coordinates":[[5.368126,43.3570668],[5.3685957,43.3568742],[5.3687655,43.3567901],[5.3689085,43.3567193],[5.3690971,43.3566218]]}},{"type":"Feature","properties":{"osm_id":"way/363325772","name":"Boulevard de L'Angelette","source":"OpenStreetMap","highway":"secondary","rang":"Voie principale"},"geometry":{"type":"LineString","coordinates":[[5.368126,43.3570668],[5.3680009,43.3571244],[5.3678523,43.3571733],[5.3677219,43.3571815],[5.3673265,43.3571809]]}},{"type":"Feature","properties":{"osm_id":"way/363325773","name":"Boulevard de L'Angelette","source":"OpenStreetMap","highway":"residential","rang":"Desserte"},"geometry":{"type":"LineString","coordinates":[[5.3675478,43.3569559],[5.3675835,43.3570157],[5.3675927,43.3570577],[5.3675885,43.3570948],[5.367568,43.357126]]}},{"type":"Feature","properties":{"osm_id":"way/363325774","name":"Boulevard de la Gare","source":"OpenStreetMap","highway":"residential","rang":"Desserte"},"geometry":{"type":"LineString","coordinates":[[5.3673265,43.3571809],[5.3672326,43.3571764],[5.3671511,43.3571706],[5.3671153,43.3571603],[5.3671021,43.357141]]}},{"type":"Feature","properties":{"osm_id":"way/363325776","name":"Boulevard de L'Angelette","source":"OpenStreetMap","highway":"residential","rang":"Desserte"},"geometry":{"type":"LineString","coordinates":[[5.367568,43.357126],[5.367555,43.3571386],[5.3675331,43.3571512],[5.3674554,43.3571657],[5.3673265,43.3571809]]}},{"type":"Feature","properties":{"osm_id":"way/363325779","name":"Boulevard de la Gare","source":"OpenStreetMap","highway":"secondary","rang":"Voie principale"},"geometry":{"type":"LineString","coordinates":[[5.3673265,43.3571809],[5.3671234,43.3571913],[5.3669927,43.35722],[5.3668335,43.3572706],[5.3667273,43.3573023]]}},{"type":"Feature","properties":{"osm_id":"way/363325788","name":null,"source":"OpenStreetMap","highway":"residential","rang":"Desserte"},"geometry":{"type":"LineString","coordinates":[[5.369328,43.3564019],[5.3693016,43.3563737],[5.3693074,43.3563357],[5.3693245,43.3562904],[5.3693741,43.356227],[5.3694168,43.3561714]]}},{"type":"Feature","properties":{"osm_id":"way/363325790","name":"Chemin de Saint-Antoine à Saint-Joseph","source":"OpenStreetMap","highway":"secondary","rang":"Voie principale"},"geometry":{"type":"LineString","coordinates":[[5.3722216,43.3530828],[5.3721475,43.3532001],[5.3720663,43.353297],[5.3720536,43.353312],[5.3720067,43.3533663],[5.3713513,43.3541136],[5.3713254,43.3541475],[5.3711514,43.3543675],[5.3710555,43.3544707],[5.3709983,43.3545294],[5.3707545,43.3547978],[5.3706536,43.3549057],[5.3705096,43.3551007]]}},{"type":"Feature","properties":{"osm_id":"way/377991076","name":"Avenue de la Viste","source":"OpenStreetMap","highway":"tertiary","rang":"Voie principale"},"geometry":{"type":"LineString","coordinates":[[5.3571146,43.3637149],[5.3572226,43.3628571],[5.357238,43.3626508],[5.3572474,43.3625655],[5.357273,43.3623325],[5.3572984,43.3621666],[5.3573072,43.3621025],[5.3574139,43.3613228],[5.357421,43.361271],[5.3575108,43.3605427],[5.3575423,43.3603359],[5.3575657,43.3601092],[5.3575753,43.3600237],[5.3575888,43.3599028],[5.3576196,43.3597213],[5.3576562,43.359511],[5.3576683,43.3593949],[5.3576715,43.3593642],[5.3576745,43.3593356],[5.3576831,43.3592523],[5.3576799,43.3591698],[5.3576694,43.3589005],[5.3576662,43.3588201],[5.3576533,43.358646],[5.3576354,43.3585125],[5.357619,43.3584174],[5.3576154,43.3583523],[5.3576117,43.3582846],[5.3575968,43.3581257],[5.3575797,43.357953],[5.3575603,43.3577569],[5.3575403,43.3575581],[5.3575367,43.3575219],[5.3575355,43.3575105],[5.3575263,43.3574185],[5.3575174,43.3573354],[5.3575159,43.3573216],[5.3575071,43.3572398],[5.3574974,43.3571502],[5.3574912,43.3570922],[5.3574748,43.3569401],[5.3574663,43.3568473],[5.3574589,43.3567748],[5.3574234,43.3563776],[5.3574213,43.3563545],[5.3574138,43.3562987],[5.3573671,43.3559511],[5.3573594,43.35577],[5.3573489,43.3556835],[5.3573354,43.3555449],[5.3573337,43.3555275],[5.357325,43.3554137],[5.3573185,43.3553391],[5.357317,43.3553225],[5.3572992,43.3551181],[5.3572122,43.3542502],[5.3572114,43.3542273],[5.357188,43.3540997],[5.35718,43.3540002],[5.3571882,43.3539195],[5.3572274,43.3537287]]}},{"type":"Feature","properties":{"osm_id":"way/377991081","name":"Chemin de Saint-Louis au Rove","source":"OpenStreetMap","highway":"tertiary","rang":"Voie principale"},"geometry":{"type":"LineString","coordinates":[[5.357582,43.3483547],[5.3576274,43.3483289],[5.3576568,43.3483123],[5.3579053,43.348196],[5.3583751,43.3479762],[5.3584454,43.3479456],[5.358789,43.3477808],[5.3589259,43.3477381],[5.35895,43.3477306],[5.3590526,43.3477107]]}},{"type":"Feature","properties":{"osm_id":"way/378314736","name":"Chemin de la Madrague Ville","source":"OpenStreetMap","highway":"tertiary","rang":"Voie principale"},"geometry":{"type":"LineString","coordinates":[[5.3558005,43.3476659],[5.3558157,43.3476905],[5.3560212,43.3479713],[5.3561083,43.3480918],[5.3561852,43.3481937]]}},{"type":"Feature","properties":{"osm_id":"way/420050631","name":"Impasse Saint-Joseph","source":"OpenStreetMap","highway":"residential","rang":"Desserte"},"geometry":{"type":"LineString","coordinates":[[5.3696251,43.3543109],[5.3701109,43.3543252]]}},{"type":"Feature","properties":{"osm_id":"way/427074650","name":"Avenue de Saint-Louis","source":"OpenStreetMap","highway":"tertiary","rang":"Voie principale"},"geometry":{"type":"LineString","coordinates":[[5.3588735,43.3492555],[5.3588873,43.3491073]]}},{"type":"Feature","properties":{"osm_id":"way/435705784","name":"Chemin de Saint-Antoine à Saint-Joseph","source":"OpenStreetMap","highway":"residential","rang":"Desserte"},"geometry":{"type":"LineString","coordinates":[[5.3706536,43.3549057],[5.3706179,43.3548991],[5.3705308,43.3548883]]}},{"type":"Feature","properties":{"osm_id":"way/435705785","name":"Chemin de Saint-Antoine à Saint-Joseph","source":"OpenStreetMap","highway":"residential","rang":"Desserte"},"geometry":{"type":"LineString","coordinates":[[5.3705308,43.3548883],[5.3705824,43.3547691],[5.3706541,43.3547408],[5.3707273,43.3547093]]}},{"type":"Feature","properties":{"osm_id":"way/435705858","name":"Chemin de Saint-Antoine à Saint-Joseph","source":"OpenStreetMap","highway":"residential","rang":"Desserte"},"geometry":{"type":"LineString","coordinates":[[5.3696296,43.3560554],[5.3697163,43.3560817]]}},{"type":"Feature","properties":{"osm_id":"way/436469870","name":"Avenue Paul Gaffarel","source":"OpenStreetMap","highway":"secondary","rang":"Voie principale"},"geometry":{"type":"LineString","coordinates":[[5.3623636,43.3482987],[5.3623019,43.3483586],[5.362088,43.3485781],[5.3619464,43.3487541],[5.361746,43.349051]]}},{"type":"Feature","properties":{"osm_id":"way/436469871","name":"Avenue Paul Gaffarel","source":"OpenStreetMap","highway":"secondary","rang":"Voie principale"},"geometry":{"type":"LineString","coordinates":[[5.3613992,43.3493526],[5.3614535,43.3492824],[5.3614911,43.349236],[5.3615326,43.3491751],[5.3616372,43.3490008],[5.3617696,43.3487958],[5.3619182,43.3485851],[5.3619867,43.3484938],[5.3621571,43.3483286],[5.3621925,43.3482944],[5.362376,43.3481426]]}},{"type":"Feature","properties":{"osm_id":"way/436469883","name":"Rue Le Chatelier","source":"OpenStreetMap","highway":"residential","rang":"Desserte"},"geometry":{"type":"LineString","coordinates":[[5.3620935,43.3478333],[5.3623121,43.3479784],[5.3623792,43.3480267],[5.362395,43.3480391],[5.3624516,43.3480867]]}},{"type":"Feature","properties":{"osm_id":"way/436469884","name":"Rue Le Chatelier","source":"OpenStreetMap","highway":"residential","rang":"Desserte"},"geometry":{"type":"LineString","coordinates":[[5.362376,43.3481426],[5.3623236,43.3480864],[5.3622181,43.3479875],[5.3621061,43.3479008],[5.3619889,43.3478757],[5.3618636,43.3478782],[5.361766,43.3478887],[5.3617062,43.3478939],[5.3616512,43.3478971],[5.3615999,43.3478986],[5.3615818,43.3478991],[5.3614932,43.3478782],[5.3614347,43.347835],[5.3613795,43.3477716],[5.3613401,43.3476924],[5.3612853,43.3475477],[5.3612134,43.3474555],[5.3611638,43.347403],[5.361098,43.3473606],[5.3610237,43.347326],[5.36095,43.3473001],[5.3607993,43.3472685],[5.3606878,43.347259],[5.3606065,43.3472605],[5.3605211,43.3472839],[5.360414,43.3473247],[5.3603255,43.3473782],[5.3602763,43.3474282],[5.3602398,43.3474835],[5.3602223,43.3475172],[5.360207,43.3475581],[5.3602088,43.3476059],[5.3602453,43.347796],[5.3602663,43.3479903],[5.3602552,43.3480355],[5.3602311,43.3480798],[5.3602103,43.3481153],[5.3601815,43.3481457],[5.3601453,43.3481725],[5.3600865,43.3481869],[5.3599971,43.3482056],[5.359928,43.348211],[5.3598677,43.3482048],[5.3597979,43.3481886],[5.3597059,43.3481431],[5.3596354,43.3480654],[5.3596025,43.3480183],[5.3595224,43.3479033],[5.3594593,43.347817],[5.3594011,43.3477804],[5.3593384,43.3477484],[5.3592246,43.3477254],[5.3592015,43.3477207],[5.3590526,43.3477107]]}},{"type":"Feature","properties":{"osm_id":"way/436469906","name":"Rue Le Chatelier","source":"OpenStreetMap","highway":"secondary","rang":"Voie principale"},"geometry":{"type":"LineString","coordinates":[[5.3631424,43.3476321],[5.3628262,43.3479277],[5.3627946,43.3479545],[5.3627725,43.3479704],[5.3624787,43.3481957]]}},{"type":"Feature","properties":{"osm_id":"way/436469907","name":"Rue Le Chatelier","source":"OpenStreetMap","highway":"secondary","rang":"Voie principale"},"geometry":{"type":"LineString","coordinates":[[5.3624516,43.3480867],[5.3626446,43.3479497],[5.362694,43.3479143],[5.3629016,43.3477729],[5.3631424,43.3476321]]}},{"type":"Feature","properties":{"osm_id":"way/436469918","name":null,"source":"OpenStreetMap","highway":"residential","rang":"Desserte"},"geometry":{"type":"LineString","coordinates":[[5.3624516,43.3480867],[5.3624787,43.3481957]]}},{"type":"Feature","properties":{"osm_id":"way/436469919","name":null,"source":"OpenStreetMap","highway":"secondary","rang":"Voie principale"},"geometry":{"type":"LineString","coordinates":[[5.362376,43.3481426],[5.3624516,43.3480867]]}},{"type":"Feature","properties":{"osm_id":"way/436469920","name":null,"source":"OpenStreetMap","highway":"residential","rang":"Desserte"},"geometry":{"type":"LineString","coordinates":[[5.3623636,43.3482987],[5.362376,43.3481426]]}},{"type":"Feature","properties":{"osm_id":"way/436469924","name":"Rue Le Chatelier","source":"OpenStreetMap","highway":"secondary","rang":"Voie principale"},"geometry":{"type":"LineString","coordinates":[[5.3624787,43.3481957],[5.362441,43.3482275],[5.3623636,43.3482987]]}},{"type":"Feature","properties":{"osm_id":"way/436792785","name":"Boulevard de la Gare","source":"OpenStreetMap","highway":"secondary","rang":"Voie principale"},"geometry":{"type":"LineString","coordinates":[[5.3659256,43.3577635],[5.3659694,43.35773],[5.3667273,43.3573023]]}},{"type":"Feature","properties":{"osm_id":"way/449869384","name":"Campagne Romani","source":"OpenStreetMap","highway":"residential","rang":"Desserte"},"geometry":{"type":"LineString","coordinates":[[5.3577021,43.3533534],[5.357728,43.3537751],[5.3577465,43.3538183],[5.3578047,43.3538469],[5.3579553,43.3538387],[5.3581142,43.3538053],[5.3583364,43.3537494],[5.3584301,43.3537534]]}},{"type":"Feature","properties":{"osm_id":"way/458289016","name":"Avenue Paul Gaffarel","source":"OpenStreetMap","highway":"secondary","rang":"Voie principale"},"geometry":{"type":"LineString","coordinates":[[5.361746,43.349051],[5.3616288,43.3491892],[5.3615702,43.3492413],[5.3615018,43.349295],[5.3613992,43.3493526]]}},{"type":"Feature","properties":{"osm_id":"way/458289017","name":"Avenue Paul Gaffarel","source":"OpenStreetMap","highway":"secondary","rang":"Voie principale"},"geometry":{"type":"LineString","coordinates":[[5.3577363,43.3489795],[5.35747,43.3488822],[5.3571503,43.3487156]]}},{"type":"Feature","properties":{"osm_id":"way/458289021","name":"Rue Le Chatelier","source":"OpenStreetMap","highway":"secondary","rang":"Voie principale"},"geometry":{"type":"LineString","coordinates":[[5.3707927,43.3484182],[5.3705599,43.3482467]]}},{"type":"Feature","properties":{"osm_id":"way/458289022","name":"Rue Le Chatelier","source":"OpenStreetMap","highway":"secondary","rang":"Voie principale"},"geometry":{"type":"LineString","coordinates":[[5.3705599,43.3482467],[5.3703979,43.3481105],[5.3702922,43.3479925],[5.3700928,43.347767],[5.37,43.3476759],[5.3699724,43.3476546],[5.3698992,43.3475982],[5.3697802,43.3475247],[5.3696756,43.3474629],[5.3694786,43.3473781],[5.3692415,43.3472889],[5.3691545,43.34727],[5.3690929,43.3472566],[5.3689605,43.3472328],[5.3689231,43.3472264],[5.3687861,43.347203],[5.3687404,43.3471952],[5.3685242,43.3471598],[5.368207,43.3470905],[5.367997,43.3470337],[5.3676905,43.3469074]]}},{"type":"Feature","properties":{"osm_id":"way/458289024","name":"Rue Le Chatelier","source":"OpenStreetMap","highway":"secondary","rang":"Voie principale"},"geometry":{"type":"LineString","coordinates":[[5.3708501,43.3483899],[5.3709842,43.3484741],[5.3711593,43.3485565],[5.3713354,43.3486222],[5.3715765,43.3486886]]}},{"type":"Feature","properties":{"osm_id":"way/498772394","name":"Boulevard Jean Barbieri","source":"OpenStreetMap","highway":"residential","rang":"Desserte"},"geometry":{"type":"LineString","coordinates":[[5.3570172,43.3492758],[5.3576734,43.3494415],[5.3586818,43.3496906],[5.3587286,43.3497022],[5.3588124,43.3497229]]}},{"type":"Feature","properties":{"osm_id":"way/508683305","name":"Chemin de Saint-Louis au Rove","source":"OpenStreetMap","highway":"secondary","rang":"Voie principale"},"geometry":{"type":"LineString","coordinates":[[5.3562341,43.3482383],[5.3562383,43.3482644],[5.3562301,43.34829],[5.3562104,43.3483121],[5.3561816,43.348328]]}},{"type":"Feature","properties":{"osm_id":"way/508683306","name":"Chemin de Saint-Louis au Rove","source":"OpenStreetMap","highway":"secondary","rang":"Voie principale"},"geometry":{"type":"LineString","coordinates":[[5.3561852,43.3481937],[5.3562156,43.3482126],[5.3562341,43.3482383]]}},{"type":"Feature","properties":{"osm_id":"way/508683307","name":"Chemin de Saint-Louis au Rove","source":"OpenStreetMap","highway":"secondary","rang":"Voie principale"},"geometry":{"type":"LineString","coordinates":[[5.3560345,43.3482852],[5.3560295,43.3482692],[5.3560315,43.3482428]]}},{"type":"Feature","properties":{"osm_id":"way/508683308","name":"Chemin de Saint-Louis au Rove","source":"OpenStreetMap","highway":"secondary","rang":"Voie principale"},"geometry":{"type":"LineString","coordinates":[[5.3561816,43.348328],[5.3561469,43.3483358]]}},{"type":"Feature","properties":{"osm_id":"way/508860976","name":"Chemin de Saint-Louis au Rove","source":"OpenStreetMap","highway":"secondary","rang":"Voie principale"},"geometry":{"type":"LineString","coordinates":[[5.3561469,43.3483358],[5.3561113,43.3483347],[5.3560784,43.348325],[5.3560518,43.3483078],[5.3560345,43.3482852]]}},{"type":"Feature","properties":{"osm_id":"way/619808640","name":null,"source":"OpenStreetMap","highway":"residential","rang":"Desserte"},"geometry":{"type":"LineString","coordinates":[[5.3624787,43.3481957],[5.362376,43.3481426]]}},{"type":"Feature","properties":{"osm_id":"way/676607908","name":"Traverse Adoul","source":"OpenStreetMap","highway":"residential","rang":"Desserte"},"geometry":{"type":"LineString","coordinates":[[5.3576747,43.3525937],[5.3574298,43.3525207],[5.3574088,43.3525076],[5.3574065,43.352475],[5.3576604,43.3520524],[5.3576663,43.3520247],[5.3576497,43.3517963],[5.3576018,43.3513391],[5.3575514,43.351106],[5.3575138,43.3509495],[5.3574903,43.3508384],[5.3573367,43.350435],[5.3573357,43.3503965],[5.3573343,43.350346],[5.3573732,43.3501223],[5.3573709,43.3499659],[5.3573619,43.3499263],[5.3572577,43.3497565],[5.357084,43.3495527],[5.3570369,43.3494853],[5.3569898,43.3493705],[5.3570172,43.3492758]]}},{"type":"Feature","properties":{"osm_id":"way/707418267","name":"Autoroute du Soleil","source":"OpenStreetMap","highway":"motorway","rang":"Autoroute"},"geometry":{"type":"LineString","coordinates":[[5.372057,43.3472364],[5.3708688,43.3482504]]}},{"type":"Feature","properties":{"osm_id":"way/782691410","name":"Rue René d'Anjou","source":"OpenStreetMap","highway":"residential","rang":"Desserte"},"geometry":{"type":"LineString","coordinates":[[5.3665568,43.3559655],[5.3664914,43.3558638],[5.3663618,43.3556669]]}},{"type":"Feature","properties":{"osm_id":"way/782691411","name":"Traverse des Laitiers","source":"OpenStreetMap","highway":"residential","rang":"Desserte"},"geometry":{"type":"LineString","coordinates":[[5.3663618,43.3556669],[5.3665837,43.3555855],[5.3667105,43.3555457]]}},{"type":"Feature","properties":{"osm_id":"way/782691412","name":"Rue René d'Anjou","source":"OpenStreetMap","highway":"residential","rang":"Desserte"},"geometry":{"type":"LineString","coordinates":[[5.365847,43.3536175],[5.3657614,43.3535036],[5.3657509,43.3534705],[5.3657365,43.3534062],[5.365789,43.3533659]]}},{"type":"Feature","properties":{"osm_id":"way/782691414","name":"Rue René d'Anjou","source":"OpenStreetMap","highway":"residential","rang":"Desserte"},"geometry":{"type":"LineString","coordinates":[[5.3659256,43.3577635],[5.3658872,43.3576993],[5.3658812,43.3576765],[5.3658946,43.3576316],[5.366018,43.3573805]]}},{"type":"Feature","properties":{"osm_id":"way/844594611","name":"Rue Serge Douriant","source":"OpenStreetMap","highway":"residential","rang":"Desserte"},"geometry":{"type":"LineString","coordinates":[[5.36095,43.3570982],[5.3610306,43.3570929],[5.3611482,43.3570853],[5.3614285,43.3570671],[5.3614857,43.357074],[5.3615079,43.3570982],[5.3615206,43.3571849]]}},{"type":"Feature","properties":{"osm_id":"way/844594612","name":"Rue Serge Douriant","source":"OpenStreetMap","highway":"residential","rang":"Desserte"},"geometry":{"type":"LineString","coordinates":[[5.3615206,43.3571849],[5.3615824,43.3577429],[5.3616245,43.3581235],[5.361638,43.3582459],[5.3616339,43.3582722],[5.3616219,43.3582898],[5.3616018,43.3583034],[5.3615776,43.3583112],[5.3609889,43.3583668],[5.360926,43.3583724],[5.3608888,43.3583765],[5.3608494,43.3583882],[5.3608132,43.3584087],[5.3607971,43.358438],[5.3607984,43.3584662],[5.3607836,43.3585125]]}},{"type":"Feature","properties":{"osm_id":"way/1004344364","name":"Impasse Lajarre","source":"OpenStreetMap","highway":"residential","rang":"Desserte"},"geometry":{"type":"LineString","coordinates":[[5.3588124,43.3497229],[5.3589225,43.34978],[5.3589635,43.3498136],[5.3589922,43.3498486],[5.3590579,43.3499218],[5.3591117,43.3499656],[5.3592111,43.3500145],[5.3594699,43.3500885],[5.3595833,43.3501461]]}},{"type":"Feature","properties":{"osm_id":"way/1021685179","name":"Rue René d'Anjou","source":"OpenStreetMap","highway":"residential","rang":"Desserte"},"geometry":{"type":"LineString","coordinates":[[5.365789,43.3533659],[5.3658295,43.3534303],[5.3658373,43.353474],[5.3658495,43.353549],[5.365847,43.3536175]]}},{"type":"Feature","properties":{"osm_id":"way/1025869959","name":"Rue de la Largade","source":"OpenStreetMap","highway":"residential","rang":"Desserte"},"geometry":{"type":"LineString","coordinates":[[5.3607118,43.3553212],[5.3606963,43.3551408],[5.3606848,43.3549721],[5.3606583,43.3545824],[5.3604125,43.3545868],[5.3604506,43.3549823],[5.3605238,43.3551278],[5.3607118,43.3553212]]}},{"type":"Feature","properties":{"osm_id":"way/1112856123","name":"Autoroute du Soleil","source":"OpenStreetMap","highway":"motorway","rang":"Autoroute"},"geometry":{"type":"LineString","coordinates":[[5.3707357,43.3481664],[5.3712148,43.3477614]]}},{"type":"Feature","properties":{"osm_id":"way/1525433491","name":"Chemin de Saint-Antoine à Saint-Joseph","source":"OpenStreetMap","highway":"secondary","rang":"Voie principale"},"geometry":{"type":"LineString","coordinates":[[5.3695595,43.35618],[5.3697163,43.3560817]]}},{"type":"Feature","properties":{"osm_id":"way/1525433492","name":null,"source":"OpenStreetMap","highway":"residential","rang":"Desserte"},"geometry":{"type":"LineString","coordinates":[[5.3695803,43.3560582],[5.3696296,43.3560554]]}}]}