{"type":"FeatureCollection","features":[{"type":"Feature","properties":{"osm_id":"node/162847430","name":"Vieux-Port","building":null,"highway":null,"tourism":"attraction","historic":null,"amenity":null,"height_m":null,"height_source":null,"levels":null,"source":"OpenStreetMap"},"geometry":{"type":"Point","coordinates":[5.3692811,43.2945804]}},{"type":"Feature","properties":{"osm_id":"node/1347465229","name":null,"building":null,"highway":null,"tourism":null,"historic":"memorial","amenity":null,"height_m":null,"height_source":null,"levels":null,"source":"OpenStreetMap"},"geometry":{"type":"Point","coordinates":[5.3656687,43.2973242]}},{"type":"Feature","properties":{"osm_id":"node/1385755114","name":null,"building":null,"highway":null,"tourism":"viewpoint","historic":null,"amenity":null,"height_m":null,"height_source":null,"levels":null,"source":"OpenStreetMap"},"geometry":{"type":"Point","coordinates":[5.3657542,43.2973324]}},{"type":"Feature","properties":{"osm_id":"node/1385755757","name":null,"building":null,"highway":null,"tourism":"viewpoint","historic":null,"amenity":null,"height_m":null,"height_source":null,"levels":null,"source":"OpenStreetMap"},"geometry":{"type":"Point","coordinates":[5.3633291,43.2953743]}},{"type":"Feature","properties":{"osm_id":"node/1714192603","name":"Hôtel de Ville","building":null,"highway":null,"tourism":null,"historic":null,"amenity":"ferry_terminal","height_m":null,"height_source":null,"levels":null,"source":"OpenStreetMap"},"geometry":{"type":"Point","coordinates":[5.3704675,43.2958583]}},{"type":"Feature","properties":{"osm_id":"node/1714192604","name":"Place aux Huiles","building":null,"highway":null,"tourism":null,"historic":null,"amenity":"ferry_terminal","height_m":null,"height_source":null,"levels":null,"source":"OpenStreetMap"},"geometry":{"type":"Point","coordinates":[5.3710841,43.2934941]}},{"type":"Feature","properties":{"osm_id":"node/1727563360","name":"Château d'If - Parc National des Calanques","building":null,"highway":null,"tourism":null,"historic":null,"amenity":"ferry_terminal","height_m":null,"height_source":null,"levels":null,"source":"OpenStreetMap"},"geometry":{"type":"Point","coordinates":[5.3733228,43.2957609]}},{"type":"Feature","properties":{"osm_id":"node/1889860768","name":"Buste du Chevalier Roze","building":null,"highway":null,"tourism":null,"historic":"memorial","amenity":null,"height_m":null,"height_source":null,"levels":null,"source":"OpenStreetMap"},"geometry":{"type":"Point","coordinates":[5.3657319,43.2960093]}},{"type":"Feature","properties":{"osm_id":"node/1891589897","name":"Monseigneur Belsunce","building":null,"highway":null,"tourism":"artwork","historic":"memorial","amenity":null,"height_m":null,"height_source":null,"levels":null,"source":"OpenStreetMap"},"geometry":{"type":"Point","coordinates":[5.364389,43.2992411]}},{"type":"Feature","properties":{"osm_id":"node/1905364734","name":"Caves Saint-Sauveur","building":null,"highway":null,"tourism":null,"historic":"archaeological_site","amenity":null,"height_m":null,"height_source":null,"levels":null,"source":"OpenStreetMap"},"geometry":{"type":"Point","coordinates":[5.3656943,43.2975457]}},{"type":"Feature","properties":{"osm_id":"node/1976952251","name":"Missak Manouchian","building":null,"highway":null,"tourism":"artwork","historic":"memorial","amenity":null,"height_m":null,"height_source":null,"levels":null,"source":"OpenStreetMap"},"geometry":{"type":"Point","coordinates":[5.3613071,43.2925295]}},{"type":"Feature","properties":{"osm_id":"node/2109283974","name":"monument aux morts 1-3e cantons","building":null,"highway":null,"tourism":null,"historic":"memorial","amenity":null,"height_m":null,"height_source":null,"levels":null,"source":"OpenStreetMap"},"geometry":{"type":"Point","coordinates":[5.3637236,43.2960079]}},{"type":"Feature","properties":{"osm_id":"node/2119952523","name":null,"building":null,"highway":null,"tourism":"attraction","historic":null,"amenity":null,"height_m":null,"height_source":null,"levels":null,"source":"OpenStreetMap"},"geometry":{"type":"Point","coordinates":[5.3687463,43.2960812]}},{"type":"Feature","properties":{"osm_id":"node/2374896684","name":null,"building":null,"highway":null,"tourism":"viewpoint","historic":null,"amenity":null,"height_m":null,"height_source":null,"levels":null,"source":"OpenStreetMap"},"geometry":{"type":"Point","coordinates":[5.3617514,43.2951216]}},{"type":"Feature","properties":{"osm_id":"node/4209784179","name":"Vieux Port","building":null,"highway":null,"tourism":null,"historic":null,"amenity":"ferry_terminal","height_m":null,"height_source":null,"levels":null,"source":"OpenStreetMap"},"geometry":{"type":"Point","coordinates":[5.3737191,43.2946209]}},{"type":"Feature","properties":{"osm_id":"node/4209784180","name":"Vieux Port","building":null,"highway":null,"tourism":null,"historic":null,"amenity":"ferry_terminal","height_m":null,"height_source":null,"levels":null,"source":"OpenStreetMap"},"geometry":{"type":"Point","coordinates":[5.3736766,43.2947018]}},{"type":"Feature","properties":{"osm_id":"node/4253158326","name":"Gare Croisières du J4","building":null,"highway":null,"tourism":null,"historic":null,"amenity":"ferry_terminal","height_m":null,"height_source":null,"levels":null,"source":"OpenStreetMap"},"geometry":{"type":"Point","coordinates":[5.3610049,43.2981862]}},{"type":"Feature","properties":{"osm_id":"node/4253158334","name":"Gare Maritime de La Major","building":null,"highway":null,"tourism":null,"historic":null,"amenity":"ferry_terminal","height_m":null,"height_source":null,"levels":null,"source":"OpenStreetMap"},"geometry":{"type":"Point","coordinates":[5.3623247,43.2993065]}},{"type":"Feature","properties":{"osm_id":"node/4253158340","name":"Vieux Port","building":null,"highway":null,"tourism":null,"historic":null,"amenity":"ferry_terminal","height_m":null,"height_source":null,"levels":null,"source":"OpenStreetMap"},"geometry":{"type":"Point","coordinates":[5.3737735,43.2943925]}},{"type":"Feature","properties":{"osm_id":"node/4425058138","name":"Le Musée du Savon","building":null,"highway":null,"tourism":"museum","historic":null,"amenity":null,"height_m":null,"height_source":null,"levels":null,"source":"OpenStreetMap"},"geometry":{"type":"Point","coordinates":[5.3694744,43.2927712]}},{"type":"Feature","properties":{"osm_id":"node/4912822119","name":"Vestiges du théâtre grec","building":null,"highway":null,"tourism":null,"historic":"archaeological_site","amenity":null,"height_m":null,"height_source":null,"levels":null,"source":"OpenStreetMap"},"geometry":{"type":"Point","coordinates":[5.3647774,43.2964526]}},{"type":"Feature","properties":{"osm_id":"node/6365090619","name":null,"building":null,"highway":null,"tourism":null,"historic":"wayside_cross","amenity":null,"height_m":null,"height_source":null,"levels":null,"source":"OpenStreetMap"},"geometry":{"type":"Point","coordinates":[5.3687257,43.2977333]}},{"type":"Feature","properties":{"osm_id":"node/6431073405","name":null,"building":null,"highway":null,"tourism":"attraction","historic":null,"amenity":null,"height_m":null,"height_source":null,"levels":null,"source":"OpenStreetMap"},"geometry":{"type":"Point","coordinates":[5.3687385,43.2959881]}},{"type":"Feature","properties":{"osm_id":"node/6694913887","name":"Terrasse de la Tour du Roi René","building":null,"highway":null,"tourism":"viewpoint","historic":null,"amenity":null,"height_m":null,"height_source":null,"levels":null,"source":"OpenStreetMap"},"geometry":{"type":"Point","coordinates":[5.3628631,43.2947479]}},{"type":"Feature","properties":{"osm_id":"node/7843180628","name":"Station sanitaire de Marseille","building":null,"highway":null,"tourism":null,"historic":"memorial","amenity":null,"height_m":null,"height_source":null,"levels":null,"source":"OpenStreetMap"},"geometry":{"type":"Point","coordinates":[5.3633765,43.2976073]}},{"type":"Feature","properties":{"osm_id":"node/7843180629","name":null,"building":null,"highway":null,"tourism":"viewpoint","historic":null,"amenity":null,"height_m":null,"height_source":null,"levels":null,"source":"OpenStreetMap"},"geometry":{"type":"Point","coordinates":[5.3634471,43.2976864]}},{"type":"Feature","properties":{"osm_id":"node/7843180637","name":null,"building":null,"highway":null,"tourism":"viewpoint","historic":null,"amenity":null,"height_m":null,"height_source":null,"levels":null,"source":"OpenStreetMap"},"geometry":{"type":"Point","coordinates":[5.3641948,43.2986195]}},{"type":"Feature","properties":{"osm_id":"node/7904772588","name":"Petit Train de Marseille","building":null,"highway":null,"tourism":"attraction","historic":null,"amenity":null,"height_m":null,"height_source":null,"levels":null,"source":"OpenStreetMap"},"geometry":{"type":"Point","coordinates":[5.3664384,43.2956458]}},{"type":"Feature","properties":{"osm_id":"node/8091061823","name":null,"building":null,"highway":null,"tourism":null,"historic":"memorial","amenity":null,"height_m":null,"height_source":null,"levels":null,"source":"OpenStreetMap"},"geometry":{"type":"Point","coordinates":[5.3715015,43.2971622]}},{"type":"Feature","properties":{"osm_id":"node/9800972121","name":"Grotte Cosquer","building":null,"highway":null,"tourism":"museum","historic":null,"amenity":null,"height_m":null,"height_source":null,"levels":null,"source":"OpenStreetMap"},"geometry":{"type":"Point","coordinates":[5.3619941,43.2972614]}},{"type":"Feature","properties":{"osm_id":"node/12250500369","name":"Jardin Missak Manouchian","building":null,"highway":null,"tourism":null,"historic":"memorial","amenity":null,"height_m":null,"height_source":null,"levels":null,"source":"OpenStreetMap"},"geometry":{"type":"Point","coordinates":[5.3612747,43.2925238]}},{"type":"Feature","properties":{"osm_id":"node/12259405087","name":"Thermes romaines de Marseille","building":null,"highway":null,"tourism":null,"historic":"archaeological_site","amenity":null,"height_m":null,"height_source":null,"levels":null,"source":"OpenStreetMap"},"geometry":{"type":"Point","coordinates":[5.369802,43.2968354]}},{"type":"Feature","properties":{"osm_id":"node/12296103140","name":"Musée de l'illusion","building":null,"highway":null,"tourism":"museum","historic":null,"amenity":null,"height_m":null,"height_source":null,"levels":null,"source":"OpenStreetMap"},"geometry":{"type":"Point","coordinates":[5.3640511,43.29858]}},{"type":"Feature","properties":{"osm_id":"node/12825696125","name":null,"building":null,"highway":null,"tourism":null,"historic":"cannon","amenity":null,"height_m":null,"height_source":null,"levels":null,"source":"OpenStreetMap"},"geometry":{"type":"Point","coordinates":[5.3612858,43.2958062]}},{"type":"Feature","properties":{"osm_id":"node/12825696126","name":null,"building":null,"highway":null,"tourism":null,"historic":"cannon","amenity":null,"height_m":null,"height_source":null,"levels":null,"source":"OpenStreetMap"},"geometry":{"type":"Point","coordinates":[5.3612768,43.2957871]}},{"type":"Feature","properties":{"osm_id":"node/12827860223","name":null,"building":null,"highway":null,"tourism":"viewpoint","historic":null,"amenity":null,"height_m":null,"height_source":null,"levels":null,"source":"OpenStreetMap"},"geometry":{"type":"Point","coordinates":[5.3623155,43.2962248]}},{"type":"Feature","properties":{"osm_id":"node/13234868677","name":"Monument à Gyptis et Protis","building":null,"highway":null,"tourism":null,"historic":"monument","amenity":null,"height_m":null,"height_source":null,"levels":null,"source":"OpenStreetMap"},"geometry":{"type":"Point","coordinates":[5.3637447,43.2933332]}}]}