{"type":"FeatureCollection","features":[{"type":"Feature","properties":{"osm_id":"way/54032775","name":"Parc Brégante","source":"OpenStreetMap","usage":"Espace vert","detail":"park"},"geometry":{"type":"Polygon","coordinates":[[[5.3570045,43.353978],[5.3569722,43.3540081],[5.3568869,43.354104],[5.3568642,43.354199],[5.3569049,43.3542033],[5.356979,43.3542025],[5.3569495,43.3542283],[5.3569181,43.3542916],[5.356808,43.354658],[5.356775,43.354777],[5.3567333,43.3548609],[5.3566859,43.3549162],[5.3565226,43.3550269],[5.356425,43.355095],[5.356434,43.355101],[5.356398,43.355121],[5.356347,43.355154],[5.3563977,43.3551996],[5.356351,43.355243],[5.3561273,43.3554304],[5.3560504,43.3554955],[5.3560828,43.3555772],[5.3558914,43.3556508],[5.3555265,43.3558053],[5.3552532,43.3559216],[5.3551462,43.3559772],[5.3548736,43.3561679],[5.3547414,43.3562608],[5.354268,43.355979],[5.3533904,43.3556239],[5.3534587,43.3555711],[5.3536584,43.3555031],[5.3538355,43.3554587],[5.3539713,43.3554382],[5.354188,43.3554498],[5.3547049,43.3554307],[5.3547614,43.3554212],[5.3550086,43.3550603],[5.3552885,43.354638],[5.3552052,43.3545331],[5.3549937,43.3543977],[5.3557816,43.3539384],[5.3558218,43.3538838],[5.3560189,43.3537853],[5.3561416,43.3537629],[5.3562295,43.3537336],[5.3562908,43.3537466],[5.3566873,43.3536696],[5.3569179,43.3538414],[5.3570045,43.353978]]]}},{"type":"Feature","properties":{"osm_id":"way/61976433","name":"Parc de l'Oasis","source":"OpenStreetMap","usage":"Espace vert","detail":"park"},"geometry":{"type":"Polygon","coordinates":[[[5.372363,43.3524076],[5.3724882,43.3522425],[5.372499,43.3521988],[5.3728593,43.3519509],[5.3725324,43.3512964],[5.3720689,43.3506746],[5.3719572,43.3505465],[5.3717351,43.3501621],[5.3716108,43.350032],[5.3710655,43.349961],[5.3710428,43.3499432],[5.3707312,43.349833],[5.370275,43.3494764],[5.370266,43.3495659],[5.3702856,43.3496662],[5.3703315,43.3497155],[5.3703951,43.3497394],[5.3703936,43.3497806],[5.3707454,43.3504821],[5.3706219,43.3505159],[5.3707214,43.3507315],[5.3707575,43.3507226],[5.37087,43.350938],[5.3709895,43.3511795],[5.3711215,43.3514299],[5.3710343,43.3515344],[5.3710487,43.3515864],[5.3710558,43.3516421],[5.3710336,43.3516408],[5.3709394,43.351695],[5.3704658,43.351831],[5.370469,43.351849],[5.3696477,43.352059],[5.3696293,43.3520936],[5.3696261,43.3521369],[5.3695712,43.3521849],[5.3699347,43.3525124],[5.3699518,43.3525715],[5.3699295,43.3528637],[5.3699103,43.3531156],[5.3699823,43.3531623],[5.3708161,43.3530692],[5.3708011,43.3529464],[5.3707968,43.3528373],[5.3707946,43.3527808],[5.3707775,43.3526623],[5.3707706,43.3525489],[5.3707702,43.3525441],[5.3707615,43.3524428],[5.3707818,43.3523937],[5.3707233,43.3522256],[5.3706772,43.3521203],[5.3706145,43.3520333],[5.3705203,43.3518983],[5.3709746,43.3517735],[5.3711408,43.3516691],[5.3710899,43.3515675],[5.3712548,43.3515238],[5.370942,43.3508859],[5.3715652,43.3507057],[5.3717008,43.3509139],[5.3720459,43.3514439],[5.371777,43.351513],[5.371624,43.351553],[5.371654,43.351604],[5.3716655,43.3516008],[5.3716729,43.3516144],[5.371679,43.351623],[5.371698,43.351652],[5.3717034,43.3516612],[5.3718511,43.3519126],[5.3720084,43.3520832],[5.372363,43.3524076]]]}},{"type":"Feature","properties":{"osm_id":"way/63944160","name":"Artizanord","source":"OpenStreetMap","usage":"Activité","detail":"commercial"},"geometry":{"type":"Polygon","coordinates":[[[5.3695712,43.3521849],[5.3694317,43.3520726],[5.3692873,43.3519153],[5.3690595,43.3516481],[5.3690407,43.3516088],[5.3689435,43.3514613],[5.3687074,43.3510465],[5.3685931,43.3509642],[5.3685692,43.3509215],[5.3684241,43.3508092],[5.3682457,43.3506688],[5.3685922,43.3503769],[5.3691518,43.3499166],[5.3693024,43.3497927],[5.3697916,43.3494888],[5.3701021,43.3492228],[5.3702087,43.3497358],[5.3702328,43.3497822],[5.3703202,43.3498092],[5.3703936,43.3497806],[5.3707454,43.3504821],[5.3706219,43.3505159],[5.3707214,43.3507315],[5.3707575,43.3507226],[5.37087,43.350938],[5.3709895,43.3511795],[5.3711215,43.3514299],[5.3710343,43.3515344],[5.3710487,43.3515864],[5.3710558,43.3516421],[5.3710336,43.3516408],[5.3709394,43.351695],[5.3704658,43.351831],[5.370469,43.351849],[5.3696477,43.352059],[5.3696293,43.3520936],[5.3696261,43.3521369],[5.3695712,43.3521849]]]}},{"type":"Feature","properties":{"osm_id":"way/183759253","name":"Savonnerie du Midi","source":"OpenStreetMap","usage":"Activité","detail":"industrial"},"geometry":{"type":"Polygon","coordinates":[[[5.362871,43.3543754],[5.3628673,43.3544979],[5.3629034,43.3546356],[5.3628049,43.3550238],[5.3632259,43.3550788],[5.3635837,43.3551139],[5.3636648,43.3549527],[5.3636939,43.3547809],[5.3637293,43.354727],[5.3636982,43.3546675],[5.3637,43.3544843],[5.363667,43.3544809],[5.3636827,43.3543181],[5.3634749,43.3542791],[5.363295,43.354277],[5.3631715,43.3542705],[5.3631552,43.3542791],[5.3631427,43.3542844],[5.363136,43.354296],[5.363111,43.354293],[5.3631116,43.3542855],[5.362968,43.3542793],[5.3629316,43.3542881],[5.3629012,43.3542954],[5.3629046,43.3543052],[5.3628545,43.3543153],[5.362871,43.3543754]]]}},{"type":"Feature","properties":{"osm_id":"way/189095390","name":"Parc Varella","source":"OpenStreetMap","usage":"Espace vert","detail":"park"},"geometry":{"type":"Polygon","coordinates":[[[5.3655732,43.3599155],[5.3656853,43.3600104],[5.3657204,43.3600364],[5.365735,43.3600553],[5.3657333,43.3600922],[5.3657556,43.3602496],[5.3657987,43.3603023],[5.3663135,43.3607409],[5.3665042,43.3609766],[5.3665155,43.3609779],[5.367011,43.360894],[5.366994,43.360754],[5.3669723,43.3605211],[5.3670402,43.3604447],[5.3669926,43.3604241],[5.3669279,43.3603751],[5.3668746,43.3603109],[5.3668092,43.360231],[5.3669435,43.3601897],[5.3669301,43.3601344],[5.3668841,43.3594264],[5.3668852,43.3590975],[5.3668471,43.358754],[5.3667631,43.3586658],[5.3665021,43.3584284],[5.3663991,43.3583175],[5.3663656,43.3582711],[5.3663413,43.3582459],[5.3661874,43.3583585],[5.3661485,43.3583902],[5.366115,43.3584225],[5.3658055,43.358714],[5.3656884,43.358825],[5.3654568,43.3591465],[5.3654843,43.3591422],[5.3654932,43.3591504],[5.3655058,43.3591854],[5.3654786,43.3592014],[5.3654789,43.3592169],[5.365705,43.3597489],[5.3656435,43.3598232],[5.3655732,43.3599155]]]}},{"type":"Feature","properties":{"osm_id":"way/224265108","name":null,"source":"OpenStreetMap","usage":"Activité","detail":"industrial"},"geometry":{"type":"Polygon","coordinates":[[[5.365957,43.354154],[5.3660553,43.3541676],[5.3661383,43.3541823],[5.3661994,43.3541931],[5.3662494,43.354202],[5.36677,43.354281],[5.367152,43.354338],[5.3675078,43.3544101],[5.3675477,43.3544093],[5.3676923,43.3543808],[5.3678105,43.3543574],[5.3678324,43.3543474],[5.3678474,43.354331],[5.3678844,43.3542107],[5.3681096,43.3534914],[5.3681065,43.353461],[5.3680883,43.3534323],[5.3680399,43.3534098],[5.3666276,43.3534196],[5.3665732,43.3534893],[5.3665164,43.3534903],[5.366478,43.353491],[5.3664364,43.35342],[5.3663559,43.353423],[5.3663398,43.3534935],[5.3662973,43.3534943],[5.3662527,43.3534951],[5.3662258,43.3534327],[5.3661482,43.353433],[5.3660188,43.3534369],[5.3659564,43.3534853],[5.3659179,43.3535207],[5.365895,43.3535642],[5.3658911,43.3535857],[5.3658926,43.3536137],[5.3658833,43.3536177],[5.3659165,43.353677],[5.3659183,43.353687],[5.3659294,43.353728],[5.3659513,43.3538626],[5.3659505,43.3541395],[5.365957,43.354154]]]}},{"type":"Feature","properties":{"osm_id":"way/271148525","name":"Jardin Val Ombré (du 19 mars 1962)","source":"OpenStreetMap","usage":"Espace vert","detail":"garden"},"geometry":{"type":"Polygon","coordinates":[[[5.356818,43.358745],[5.3568001,43.3587472],[5.3568095,43.358783],[5.3567731,43.358788],[5.3566748,43.3585051],[5.3566212,43.3585022],[5.3566341,43.3584494],[5.3567153,43.3584521],[5.356748,43.358267],[5.356977,43.358293],[5.356981,43.358288],[5.356995,43.358294],[5.357012,43.35826],[5.357439,43.358374],[5.357444,43.358366],[5.357479,43.358375],[5.357485,43.358364],[5.35753,43.358376],[5.3575413,43.358513],[5.357553,43.3586304],[5.3573492,43.3586261],[5.357315,43.358625],[5.356806,43.358605],[5.356816,43.358698],[5.356816,43.358721],[5.356818,43.358745]]]}},{"type":"Feature","properties":{"osm_id":"way/314413744","name":"Jardin Gavot","source":"OpenStreetMap","usage":"Espace vert","detail":"garden"},"geometry":{"type":"Polygon","coordinates":[[[5.3577873,43.3584676],[5.3579253,43.3585113],[5.3580561,43.358568],[5.3581419,43.3586161],[5.3582525,43.3586614],[5.358479,43.3587193],[5.3586102,43.3587395],[5.358888,43.3587356],[5.3590371,43.3587253],[5.3594398,43.35855],[5.359532,43.3583606],[5.3590564,43.358381],[5.3586899,43.3584016],[5.3581906,43.3584296],[5.3580829,43.358434],[5.3577807,43.3584548],[5.3577873,43.3584676]]]}},{"type":"Feature","properties":{"osm_id":"way/421873347","name":null,"source":"OpenStreetMap","usage":"Ferroviaire","detail":"railway"},"geometry":{"type":"Polygon","coordinates":[[[5.3696528,43.3565486],[5.3691257,43.356903],[5.3686871,43.3571146],[5.3683024,43.3572899],[5.3673739,43.3576461],[5.3668917,43.3578606],[5.3665313,43.3580564],[5.3663197,43.3582009],[5.3659747,43.3584601],[5.3656477,43.3587595],[5.3654246,43.3590065],[5.3652553,43.3592098],[5.3650437,43.3595604],[5.3648411,43.3600546],[5.3646538,43.3608499],[5.3645281,43.3608331],[5.3647051,43.3600919],[5.3648128,43.3597804],[5.364959,43.3594709],[5.3651668,43.3591464],[5.3652791,43.3590073],[5.3653925,43.3588667],[5.3656131,43.3586131],[5.3658875,43.3583613],[5.3662633,43.3581077],[5.3666685,43.3578699],[5.3670045,43.3577012],[5.3678663,43.3573543],[5.3683062,43.3571827],[5.3687127,43.3569906],[5.3691795,43.3567267],[5.3696425,43.3564386],[5.3696528,43.3565486]]]}},{"type":"Feature","properties":{"osm_id":"way/421873352","name":null,"source":"OpenStreetMap","usage":"Ferroviaire","detail":"railway"},"geometry":{"type":"Polygon","coordinates":[[[5.3822693,43.3462301],[5.3820342,43.3466491],[5.3818636,43.3471391],[5.3817243,43.3478566],[5.3815949,43.3486103],[5.3815167,43.349119],[5.3814314,43.3494943],[5.3813234,43.3497434],[5.3811456,43.3501063],[5.3808727,43.3504909],[5.3806281,43.3507556],[5.3802926,43.3510099],[5.3799841,43.3512228],[5.3795647,43.3514472],[5.3791666,43.3516229],[5.3787714,43.3517511],[5.3784842,43.3518276],[5.3779474,43.3519307],[5.3772455,43.3520447],[5.3772159,43.3520494],[5.3772077,43.3520506],[5.3770139,43.3520823],[5.3770063,43.3520835],[5.3763701,43.352189],[5.3759157,43.3522607],[5.3755483,43.3523063],[5.3750607,43.3524117],[5.3745104,43.3525782],[5.3740541,43.3527663],[5.3736446,43.3529752],[5.3732067,43.3532553],[5.3729365,43.353471],[5.3724566,43.3539391],[5.3717427,43.3546277],[5.3712311,43.3551367],[5.37108,43.3552804],[5.3707358,43.3555916],[5.3703732,43.3559524],[5.3699766,43.3563111],[5.3697932,43.3564558],[5.3697889,43.3563411],[5.3700548,43.3561002],[5.3704287,43.3557394],[5.3708865,43.3552774],[5.3712803,43.3549073],[5.3717608,43.3544235],[5.3723267,43.3538838],[5.3728257,43.3534042],[5.3732167,43.3531033],[5.3738721,43.3527167],[5.3742958,43.3525172],[5.3748175,43.3523559],[5.375382,43.3522039],[5.3758712,43.3521458],[5.3769602,43.3519689],[5.3771599,43.3519354],[5.3771748,43.351933],[5.3771925,43.3519302],[5.3772126,43.3519269],[5.377921,43.3518132],[5.3783647,43.3517315],[5.3787586,43.3516374],[5.3793301,43.351442],[5.379687,43.351259],[5.3800026,43.3510812],[5.3802784,43.3508372],[5.3805485,43.3506015],[5.3808357,43.3502903],[5.3810788,43.3499957],[5.3811727,43.3497858],[5.3813148,43.3494488],[5.3813802,43.3491862],[5.3814499,43.3487458],[5.3815295,43.3482206],[5.3816191,43.3476664],[5.3817456,43.3470926],[5.3818508,43.3467245],[5.3820527,43.3463203],[5.3822252,43.3460787],[5.3822693,43.3462301]]]}},{"type":"Feature","properties":{"osm_id":"way/459182337","name":null,"source":"OpenStreetMap","usage":"Activité","detail":"industrial"},"geometry":{"type":"Polygon","coordinates":[[[5.363662,43.3539981],[5.3638245,43.3540244],[5.3638754,43.3540414],[5.3640392,43.3538155],[5.364208,43.3536099],[5.3641793,43.3535522],[5.3642303,43.3534927],[5.3642961,43.3534863],[5.3642519,43.3532569],[5.3641191,43.3532731],[5.3641101,43.3532309],[5.3635277,43.3533211],[5.363556,43.353413],[5.36365,43.353882],[5.363625,43.353972],[5.363638,43.354004],[5.363662,43.3539981]]]}},{"type":"Feature","properties":{"osm_id":"way/459182338","name":null,"source":"OpenStreetMap","usage":"Activité","detail":"industrial"},"geometry":{"type":"Polygon","coordinates":[[[5.363222,43.353763],[5.3632468,43.3537522],[5.36309,43.353182],[5.363076,43.353185],[5.363062,43.353187],[5.363037,43.353188],[5.363025,43.353187],[5.363001,43.35318],[5.362977,43.35317],[5.362966,43.353163],[5.362949,43.353149],[5.36294,43.353138],[5.362934,43.353127],[5.3629297,43.3531129],[5.3626938,43.3525747],[5.3621473,43.3526039],[5.3621627,43.3528248],[5.3621808,43.3529003],[5.3622145,43.3529856],[5.362524,43.3534877],[5.362567,43.3535604],[5.362785,43.3539073],[5.363222,43.353763]]]}},{"type":"Feature","properties":{"osm_id":"way/498772365","name":null,"source":"OpenStreetMap","usage":"Espace vert","detail":"garden"},"geometry":{"type":"Polygon","coordinates":[[[5.3567916,43.3496352],[5.3568214,43.34963],[5.3568857,43.3496217],[5.356857,43.3495676],[5.356994,43.349522],[5.3569796,43.3495022],[5.3568727,43.3492912],[5.3567184,43.3493319],[5.356761,43.3495822],[5.3567818,43.3495803],[5.3567916,43.3496352]]]}},{"type":"Feature","properties":{"osm_id":"way/498772388","name":"Azur Emballages","source":"OpenStreetMap","usage":"Activité","detail":"industrial"},"geometry":{"type":"Polygon","coordinates":[[[5.3563295,43.3510321],[5.35678,43.3509624],[5.3567921,43.3509783],[5.3568102,43.3509751],[5.3567765,43.3507933],[5.3567457,43.3506315],[5.3567517,43.3506313],[5.3567347,43.3505294],[5.356486,43.3505523],[5.3564012,43.3505516],[5.3563648,43.3505509],[5.356284,43.3505508],[5.3561786,43.3505495],[5.3561781,43.3505867],[5.3561787,43.3506925],[5.3561385,43.3507997],[5.3561613,43.3508865],[5.3561712,43.3509387],[5.3563179,43.3509318],[5.3563295,43.3510321]]]}},{"type":"Feature","properties":{"osm_id":"way/640941817","name":null,"source":"OpenStreetMap","usage":"Activité","detail":"industrial"},"geometry":{"type":"Polygon","coordinates":[[[5.3615427,43.3482281],[5.3609492,43.3486371],[5.3607944,43.3486981],[5.360717,43.348661],[5.360622,43.348788],[5.360552,43.348862],[5.360448,43.348964],[5.360355,43.349047],[5.360231,43.349149],[5.360147,43.34921],[5.3598595,43.3493548],[5.3597952,43.3492813],[5.3600661,43.3491316],[5.360065,43.349101],[5.360066,43.348972],[5.3600678,43.3489264],[5.360065,43.348846],[5.360074,43.34869],[5.360077,43.348659],[5.360081,43.348583],[5.360081,43.34857],[5.360085,43.34851],[5.360127,43.348497],[5.360174,43.34848],[5.360212,43.348467],[5.360247,43.348455],[5.360315,43.348431],[5.3603903,43.348405],[5.360451,43.34838],[5.360488,43.348365],[5.360513,43.348353],[5.36053,43.348346],[5.360544,43.348339],[5.36058,43.348323],[5.360724,43.348258],[5.3607248,43.3482539],[5.360738,43.3481998],[5.3611457,43.3482485],[5.3612222,43.3481705],[5.3613952,43.3480467],[5.3615427,43.3482281]]]}},{"type":"Feature","properties":{"osm_id":"way/674303950","name":null,"source":"OpenStreetMap","usage":"Activité","detail":"industrial"},"geometry":{"type":"Polygon","coordinates":[[[5.3648578,43.3462549],[5.3647457,43.3466263],[5.3638697,43.3472477],[5.3627519,43.3480969],[5.3625887,43.3481891],[5.3625277,43.3482424],[5.362631,43.3483287],[5.3627699,43.3484145],[5.3626007,43.34852],[5.3625546,43.3484924],[5.3625167,43.3484805],[5.3624951,43.3484787],[5.3624729,43.3484774],[5.3624465,43.3484785],[5.3624198,43.3484825],[5.3623706,43.3484994],[5.3623245,43.3485233],[5.3622232,43.3485693],[5.3620516,43.3487844],[5.3619622,43.3489262],[5.3619724,43.349063],[5.3619571,43.349182],[5.3619138,43.3494863],[5.3620569,43.3503958],[5.3619845,43.3507875],[5.3620498,43.3515695],[5.3621417,43.3525398],[5.3627268,43.3525052],[5.3626403,43.3523554],[5.3626678,43.352127],[5.3627455,43.3518138],[5.3626702,43.3518048],[5.3625586,43.3517208],[5.3622637,43.3516822],[5.3621965,43.3516235],[5.3621954,43.3516013],[5.3628245,43.3515832],[5.3630478,43.351633],[5.3630533,43.3515195],[5.3632321,43.3515213],[5.3644794,43.3515406],[5.364596,43.3512323],[5.3649538,43.3512544],[5.3650312,43.3512613],[5.3650631,43.3512432],[5.3650843,43.3510147],[5.3650936,43.3509365],[5.3651725,43.3507133],[5.3660541,43.3489323],[5.3663379,43.3483434],[5.3663706,43.3482283],[5.3663714,43.3481342],[5.366358,43.3480669],[5.3663204,43.3479714],[5.3660396,43.3474774],[5.3658336,43.3475715],[5.3656085,43.3476499],[5.3652715,43.3476488],[5.3652154,43.3475166],[5.3651969,43.3474695],[5.3652203,43.3474269],[5.3652867,43.3474447],[5.365328,43.3474556],[5.3653205,43.3473951],[5.3655968,43.347378],[5.365635,43.3473756],[5.3656719,43.347309],[5.3656952,43.3472674],[5.3657288,43.3472053],[5.3657466,43.3471727],[5.3658166,43.347191],[5.3658407,43.3471972],[5.3658412,43.3471841],[5.3658674,43.3471838],[5.3658743,43.3471776],[5.3658766,43.3471387],[5.3658871,43.3471387],[5.365888,43.347133],[5.3659079,43.3471337],[5.3659852,43.3471364],[5.3660201,43.3471376],[5.3660398,43.3468119],[5.3659617,43.3467627],[5.3659639,43.3467345],[5.3659665,43.3467],[5.3660473,43.3466468],[5.3660447,43.346591],[5.3660186,43.346534],[5.365985,43.3464858],[5.3659805,43.3464845],[5.3659516,43.3464596],[5.3659097,43.3464369],[5.3658455,43.3464116],[5.3657574,43.3464038],[5.3655476,43.3464165],[5.3654246,43.3464301],[5.3653806,43.3462503],[5.3655088,43.3462377],[5.3655783,43.3462328],[5.3656705,43.3462017],[5.3657617,43.3462044],[5.365835,43.3462192],[5.365933,43.3462241],[5.3660856,43.3461545],[5.3660904,43.3460202],[5.366069,43.3460192],[5.366069,43.3459885],[5.3660918,43.345987],[5.366101,43.345876],[5.3661262,43.3454617],[5.3661179,43.3454196],[5.3648578,43.3462549]]]}},{"type":"Feature","properties":{"osm_id":"way/1021685178","name":"Jardin de l'Olivier Bleu","source":"OpenStreetMap","usage":"Espace vert","detail":"park"},"geometry":{"type":"Polygon","coordinates":[[[5.3677769,43.355139],[5.3676543,43.3551466],[5.3672313,43.3551878],[5.367209,43.355181],[5.367136,43.355173],[5.36714,43.3551636],[5.3671379,43.3551541],[5.3671409,43.3551486],[5.3671366,43.3551374],[5.3671444,43.3551262],[5.3671466,43.3551157],[5.3671542,43.3551056],[5.3671612,43.3551037],[5.3671683,43.3550928],[5.36718,43.3550862],[5.3671828,43.3550785],[5.3671913,43.3550767],[5.3671988,43.355066],[5.3671793,43.3548663],[5.3674721,43.3548657],[5.3675906,43.3548441],[5.3677137,43.3550042],[5.3677562,43.3550848],[5.3677661,43.3551078],[5.3677769,43.355139]]]}},{"type":"Feature","properties":{"osm_id":"way/1031031824","name":null,"source":"OpenStreetMap","usage":"Ferroviaire","detail":"railway"},"geometry":{"type":"Polygon","coordinates":[[[5.359278,43.34957],[5.3595031,43.3494426],[5.359522,43.3494485],[5.3600733,43.3496302],[5.3599863,43.34964],[5.3597846,43.3497861],[5.3595287,43.3498898],[5.3594629,43.3498744],[5.3594073,43.3499221],[5.3593566,43.3499185],[5.3593046,43.3499092],[5.3592599,43.3498952],[5.3592239,43.3499992],[5.3591664,43.3499727],[5.3591198,43.3499464],[5.3590877,43.3499228],[5.3590481,43.3498854],[5.359002,43.3498246],[5.358955,43.349752],[5.35903,43.349709],[5.359057,43.349694],[5.3590852,43.3496784],[5.359106,43.349667],[5.359205,43.349611],[5.359249,43.349587],[5.359278,43.34957]]]}},{"type":"Feature","properties":{"osm_id":"way/1201380593","name":null,"source":"OpenStreetMap","usage":"Ferroviaire","detail":"railway"},"geometry":{"type":"Polygon","coordinates":[[[5.3622009,43.3480377],[5.3617969,43.3483158],[5.3616794,43.3483948],[5.3606442,43.349098],[5.3601121,43.3494361],[5.3598595,43.3493548],[5.360147,43.34921],[5.360231,43.349149],[5.360355,43.349047],[5.360448,43.348964],[5.360552,43.348862],[5.360622,43.348788],[5.360717,43.348661],[5.360789,43.348557],[5.3608178,43.3485075],[5.3609104,43.3485504],[5.3607944,43.3486981],[5.3609492,43.3486371],[5.3615427,43.3482281],[5.3615856,43.3482456],[5.3616939,43.3481742],[5.3620697,43.3479353],[5.3622009,43.3480377]]]}}]}