{"type":"FeatureCollection","features":[{"type":"Feature","properties":{"osm_id":"node/2330838830","name":"Monument aux morts","source":"OpenStreetMap","historic":"memorial"},"geometry":{"type":"Point","coordinates":[5.3661415,43.3542642]}},{"type":"Feature","properties":{"osm_id":"node/2458279585","name":"Monument aux morts de la Guerre 1914-1948","source":"OpenStreetMap","historic":"memorial"},"geometry":{"type":"Point","coordinates":[5.3623139,43.3557162]}},{"type":"Feature","properties":{"osm_id":"node/4901244983","name":null,"source":"OpenStreetMap","historic":"memorial"},"geometry":{"type":"Point","coordinates":[5.3586921,43.349661]}},{"type":"Feature","properties":{"osm_id":"way/577703795","name":"Fontaine de Marie-Madeleine","source":"OpenStreetMap","historic":"yes"},"geometry":{"type":"Point","coordinates":[5.365905249999999,43.354522149999994]}}]}